,iata_code,lat,lon,airport,street_number,route,locality,administrative_area_level_2,administrative_area_level_1,country,postal_code,neighborhood,political,administrative_area_level_3,postal_code_suffix,establishment,subpremise,premise,postal_town,bus_station,administrative_area_level_4
0,DAL,32.8481029,-96.8512063,Dallas Love Field Airport,8008,Herb Kelleher Way,Dallas,Dallas County,TX,US,75235,,,,,,,,,,
1,DCA,38.851242,-77.04023149999999,Ronald Reagan Washington National Airport,,,Arlington,Arlington County,VA,US,22202,,,,,,,,,,
2,DEN,39.8560963,-104.6737376,Denver International Airport,8500,Peña Blvd,Denver,Denver County,CO,US,80249,,,,,,,,,,
3,DSM,41.5341333,-93.6587958,Des Moines International Airport,5800,Fleur Dr,Des Moines,Polk County,IA,US,50321,,,,,,,,,,
4,ECP,30.3548543,-85.7995134,Northwest Florida Beaches International Airport,6300,W Bay Pkwy,Panama City,Bay County,FL,US,32409,,,,,,,,,,
5,ELP,31.8053354,-106.3824345,EPIA,6701,Convair Rd,El Paso,El Paso County,TX,US,79925,East El Paso,,,,,,,,,
6,EWR,40.6895314,-74.1744624,Newark Liberty International Airport,3,Brewster Rd,Newark,,NJ,US,07114,,,,,,,,,,
7,FLL,26.0742344,-80.1506022,Fort Lauderdale-Hollywood International Airport,100,Terminal Dr,Fort Lauderdale,Broward County,FL,US,33315,,,,,,,,,,
8,FOE,38.9483444,-95.6664279,Topeka Regional Airport,6510,SE Forbes Ave,Topeka,Shawnee County,KS,US,66619,,,,,,,,,,
9,GEG,47.62174779999999,-117.534812,Spokane International Airport,9000,W Airport Dr,Spokane,Spokane County,WA,US,99224,,,,,,,,,,
10,GSP,34.8959008,-82.2172338,Greenville-Spartanburg International Airport,2000,GSP Dr,Greer,,SC,US,29651,,,,,,,,,,
11,IAD,38.9531162,-77.45653879999999,Dulles International Airport,1,Saarinen Cir,Dulles,,VA,US,20166,,,,,,,,,,
12,IND,39.7168593,-86.2955952,Indianapolis International Airport,7800,Col. H. Weir Cook Memorial Dr,Indianapolis,Marion County,IN,US,46241,,,,,,,,,,
13,JAX,30.49407129999999,-81.6879368,Jacksonville International Airport,2400,Yankee Clipper Dr,Jacksonville,Duval County,FL,US,32218,Northside,,,,,,,,,
14,LAS,36.0839998,-115.1537389,McCarran International Airport,5757,Wayne Newton Blvd,Las Vegas,Clark County,NV,US,89119,,,,,,,,,,
15,LAX,33.9415889,-118.40853,Los Angeles International Airport,1,World Way,Los Angeles,Los Angeles County,CA,US,90045,,,,,,,,,,
16,LBB,33.8176974,-118.1523845,LGB,4100,Donald Douglas Dr,Long Beach,Los Angeles County,CA,US,90808,,,,,,,,,,
17,LEX,38.03776149999999,-84.6026083,Blue Grass Airport,4000,Terminal Dr,Lexington,Fayette County,KY,US,40510,,,,,,,,,,
18,LGA,40.7769271,-73.8739659,LaGuardia Airport,,,,Queens County,NY,US,11371,East Elmhurst,Queens,,,,,,,,
19,LIT,34.7307049,-92.2216531,Bill and Hillary Clinton National Airport,1,Airport Rd,Little Rock,Pulaski County,AR,US,72202,,,Big Rock Township,,,,,,,
20,MAF,31.9417386,-102.2047497,Midland International Air & Space Port,9506,La Force Blvd,Midland,Midland County,TX,US,79706,,,,,,,,,,
21,MCI,39.2991181,-94.7107786,Kansas City International Airport,,,KCMO,Platte County,MO,US,64153,,,,,,,,,,
22,MCO,28.4311577,-81.308083,Orlando International Airport,1,Jeff Fuqua Blvd,Orlando,Orange County,FL,US,32827,Southeast Orlando,,,,,,,,,
23,MDT,40.1942375,-76.7576672,Harrisburg International Airport,1,Terminal Dr,Middletown,Dauphin County,PA,US,17057,,,Lower Swatara Township,,,,,,,
24,MDW,41.78677589999999,-87.7521884,Chicago Midway International Airport,5700,S Cicero Ave,Chicago,Cook County,IL,US,60638,South Side,,,,,,,,,
25,MEM,35.0420679,-89.9791729,Memphis International Airport,2491,Winchester Rd,Memphis,Shelby County,TN,US,38116,,,,,,,,,,
26,MHT,42.929687,-71.4352177,Manchester-Boston Regional Airport,1,Airport Rd,Manchester,,NH,US,03103,,,,,,,,,,
27,MKE,42.9475534,-87.89664599999999,General Mitchell International Airport,5300,S Howell Ave,Milwaukee,Milwaukee County,WI,US,53207,,,,,,,,,,
28,MSY,29.9910905,-90.2592299,Louis Armstrong New Orleans International Airport,1,Terminal Dr,Kenner,,LA,US,70062,,,,,,,,,,
29,OAK,37.7125689,-122.2197428,Oakland International Airport,1,Airport Dr,Oakland,Alameda County,CA,US,94621,,,,,,,,,,
30,OKC,35.393056,-97.600556,Will Rogers World Airport,7100,Terminal Dr,Oklahoma City,,OK,US,73159,Southwest Oklahoma City,,,,,,,,,
31,OMA,41.3018733,-95.8937409,Eppley Airfield,4501,Abbott Dr,Omaha,Douglas County,NE,US,68110,East Omaha,,,,,,,,,
32,ONT,34.0559781,-117.598057,Ontario International Airport,,,Ontario,San Bernardino County,CA,US,91761,,,,,,,,,,
33,ORF,36.8956837,-76.2000161,Norfolk International Airport,2200,Norview Ave,Norfolk,Norfolk,VA,US,23518,,,Norfolk,5807,,,,,,
34,PAE,47.9075768,-122.2808529,Paine Field,3220,100th St SW,Everett,Snohomish County,WA,US,98204,,,,,,,,,,
35,PBI,26.6857475,-80.0928165,Palm Beach International Airport,1000,James L Turnage Blvd,West Palm Beach,Palm Beach County,FL,US,33415,,,,,,,,,,
36,PHL,39.8743959,-75.2424229,Philadelphia International Airport,8000,Essington Ave,Philadelphia,,PA,US,19153,,,,,,,,,,
37,PVD,41.7245271,-71.4304062,T. F. Green Airport,2000,Post Rd,Warwick,Kent County,RI,US,02886,,,,,,,,,,
38,RDU,35.88007899999999,-78.7879963,Raleigh-Durham International Airport,2400,John Brantley Blvd,Morrisville,Wake County,NC,US,27560,,,Cedar Fork,,,,,,,
39,RIC,37.5065795,-77.3208112,Richmond International Airport,1,Richard E Byrd Terminal Dr,Richmond,Henrico County,VA,US,23250,,,Varina,,,,,,,
40,RNO,39.4995907,-119.7680951,Reno-Tahoe International Airport,2001,E Plumb Ln,Reno,Washoe County,NV,US,89502,,,,,,,,,,
41,ROC,43.1225229,-77.66657219999999,Greater Rochester International Airport,1200,Brooks Ave,Rochester,Monroe County,NY,US,14624,,,,,,,,,,
42,RSW,26.5337051,-81.7553083,Southwest Florida International Airport,11000,Terminal Access Rd,Fort Myers,Lee County,FL,US,33913,,,,8213,,,,,,
43,SAN,32.7338006,-117.1933038,San Diego International Airport,3225,N Harbor Dr,San Diego,San Diego County,CA,US,92101,Point Loma,,,,,,,,,
44,SAT,29.5311973,-98.4683484,San Antonio International Airport,9800,Airport Blvd,San Antonio,Bexar County,TX,US,78216,Uptown,,,,,,,,,
45,SBN,41.7077166,-86.315843,South Bend International Airport,4477,Progress Dr,South Bend,St Joseph County,IN,US,46628,,,German Township,,,,,,,
46,SEA,47.4502499,-122.3088165,Seattle-Tacoma International Airport,17801,International Blvd,Seattle,King County,WA,US,98158,,,,,,,,,,
47,SJC,37.3639472,-121.9289375,Norman Y. Mineta San Jose International Airport,1701,Airport Blvd,San Jose,Santa Clara County,CA,US,95110,,,,,,,,,,
48,SMF,38.6950854,-121.5900648,Sacramento International Airport,6900,Airport Blvd,Sacramento,Sacramento County,CA,US,95837,North Natomas,,,,,,,,,
49,STL,38.7499403,-90.374819,St. Louis Lambert International Airport,10701,Lambert International Blvd,St. Louis,St Louis County,MO,US,63145,,,,0212,,,,,,
50,SYR,43.1139301,-76.1101888,Syracuse Hancock International Airport,1000,Col Eileen Collins Blvd,Syracuse,Onondaga County,NY,US,13212,,,,,,,,,,
51,TPA,27.9771524,-82.5311382,Tampa International Airport,4100,George J Bean Pkwy,Tampa,Hillsborough County,FL,US,33607,Westshore,,,,,,,,,
52,BWI,39.1774042,-76.6683922,Baltimore/Washington International Thurgood Marshall Airport,,,Baltimore,Anne Arundel County,MD,US,21240,,,5,,,,,,,
53,EYW,24.5536707,-81.7549737,Key West International Airport,3491,S Roosevelt Blvd,Key West,Monroe County,FL,US,33040,,,,,,,,,,
54,BGR,44.808176,-68.8165035,Bangor International Airport,287,Godfrey Blvd,Bangor,Penobscot County,ME,US,04401,,,,3025,,,,,,
55,IAH,29.9902199,-95.3367827,George Bush Intercontinental Airport,2800,N Terminal Rd,Houston,Harris County,TX,US,77032,,,,,,,,,,
56,DFW,32.8998091,-97.0403352,DFW International Airport,2400,Aviation Dr,DFW Airport,,TX,US,75261,,,,,,,,,,
57,JFK,40.6413111,-73.77813909999999,JFK International Airport,,,,Queens County,NY,US,11430,,Queens,,,,,,,,
58,LCK,39.8173811,-82.9358462,Rickenbacker International Airport,2295,John Cir Dr,Columbus,,OH,US,43217,,,,1247,,,,,,
59,MIA,25.7958723,-80.2870509,Miami International Airport,2100,NW 42nd Ave,Miami,Miami-Dade County,FL,US,33126,,,,,,,,,,
60,ORD,41.9741625,-87.9073214,O'Hare International Airport,10000,W O'Hare Ave,Chicago,,IL,US,60666,,,,,,,,,,
61,SFO,37.6213129,-122.3789554,San Francisco International Airport,,,SF,San Mateo County,CA,US,94128,,,,,,,,,,
62,ATL,33.6407282,-84.4277001,Hartsfield-Jackson Atlanta International Airport,6000,N Terminal Pkwy,Atlanta,,GA,US,30320,,,,,,,,,,
63,ACK,41.2569516,-70.0637506,Nantucket Memorial Airport,14,Airport Rd,Nantucket,Nantucket County,MA,US,02554,,,,,,,,,,
64,ACT,31.6135898,-97.2262899,Waco Regional Airport,7909,Karl May Dr,Waco,McLennan County,TX,US,76708,North Lake Waco,,,,,,,,,
65,ALB,42.7487124,-73.8054981,Albany International Airport,,Albany Shaker Rd,,Albany County,NY,US,,,,Colonie,,,,,,,
66,AUS,30.19747109999999,-97.66635289999999,Austin-Bergstrom International Airport,3600,Presidential Blvd,Austin,Travis County,TX,US,78719,,,,,,,,,,
67,BCT,26.3829495,-80.1011879,Boca Raton Airport Authority,903,NW 35th St,Boca Raton,Palm Beach County,FL,US,33431,,,,6410,,,,,,
68,BGE,13.0799387,-59.4872422,Grantley Adams International Airport,,Gordon Cummins Hwy,,,Christ Church,BB,,,,,,Adams-Barrow,,,,,
69,BGM,42.208651,-75.9813976,Greater Binghamton Airport,,Airport Rd,Johnson City,Broome County,NY,US,13790,,,Maine,,,,,,,
70,BHM,33.5624269,-86.754126,Birmingham-Shuttlesworth International Airport,5900,Messer Airport Hwy,Birmingham,Jefferson County,AL,US,35212,,,,,,,,,,
71,BLF,37.2935004,-81.2076732,Mercer County Airport,300,Markell Dr,Bluefield,Mercer County,WV,US,24701,,,I,,,200,,,,
72,BOS,42.3656132,-71.0095602,Boston Logan International Airport,1,Harborside Dr,Boston,Suffolk County,MA,US,02128,,,,,,,,,,
73,BTP,40.779132,-79.947569,"Pittsburgh-Butler Regional Airport, formerly known as Butler County Airport",473,Airport Rd,Butler,Butler County,PA,US,16002,,,Penn Township,7633,,2,,,,
74,BTV,44.4706939,-73.1516037,Burlington International Airport,1200,Airport Dr,South Burlington,Chittenden County,VT,US,05403,,,,,,,,,,
75,BUF,42.9397059,-78.7295067,Buffalo Niagara International Airport,4200,Genesee St,Buffalo,Erie County,NY,US,14225,,,Cheektowaga,,,,,,,
76,CHA,35.0374486,-85.19701119999999,Chattanooga Airport,1001,Airport Rd,Chattanooga,Hamilton County,TN,US,37421,,,,,,,,,,
77,CPX,18.3124647,-65.3038902,Aeropuerto Benjamín Rivera Noriega,,PR-251,Culebra,,Culebra,PR,00775,,,,,,,,,,
78,FRG,40.7261266,-73.4167921,Republic Airport,7150,Republic Airport,Farmingdale,Suffolk County,NY,US,11735,,,Babylon,3999,,,,,,
79,GCY,36.1931003,-82.8135653,Greeneville Municipal Airport,245,Airport Rd,Greeneville,Greene County,TN,US,37745,,,,,,,,,,
80,GON,41.3300875,-72.0466745,Groton - New London Airport,155,Tower Ave,Groton,New London County,CT,US,06340,,,Groton,,,,,,,
81,GRB,44.4923396,-88.12775409999999,Green Bay Austin Straubel Int'l Airport,2077,Airport Dr,Green Bay,Brown County,WI,US,54313,,,,,,,,,,
82,HGR,39.7051079,-77.7311945,Hagerstown Regional Airport,18434,Showalter Rd,Hagerstown,Washington County,MD,US,21742,,,,,,,,,,
83,HKY,35.7422447,-81.3892546,Hickory Regional Airport,3101,9th Ave Dr NW,Hickory,,NC,US,28601,,,,8647,,,,,,
84,HPN,41.0683325,-73.7086641,Westchester County Airport,240,Airport Rd,White Plains,Westchester County,NY,US,10604,West Harrison,,,,,,,,,
85,JRV,18.25354,-65.6441038,José Aponte De La Torre Airport,,,Roosevelt Roads,,Ceiba,PR,00735,,,,,,,,,,
86,MSV,41.702564,-74.8009022,Sullivan County Airport,75,Co Rd 183A,Swan Lake,Sullivan County,NY,US,12783,,,Bethel,,,,,,,
87,MVL,44.5362896,-72.6140733,Morrisville-Stowe State Airport,2305,Laporte Rd,Morristown,Lamoille County,VT,US,05661,,,,8242,,,,,,
88,MVY,41.3892707,-70.6122055,Martha's Vineyard Airport,71,Airport Rd,West Tisbury,Dukes County,MA,US,02575,,,,,,,,,,
89,NPT,41.5318166,-71.2806057,Newport State Airport,211,Airport Access Rd,Middletown,Newport County,RI,US,02842,Newport East,,,4689,,,,,,
90,ORH,42.2680227,-71.8735112,Worcester Regional Airport,375,Airport Dr,Worcester,Worcester County,MA,US,01602,,,,2266,,,,,,
91,ORL,28.546159,-81.3321678,Orlando Executive Airport,365,Rickenbacker Dr,Orlando,Orange County,FL,US,32803,Northeast Orlando,,,5247,,,,,,
92,PIT,40.4919208,-80.2352233,Pittsburgh International Airport,1000,Airport Blvd,Pittsburgh,Allegheny County,PA,US,15231,,,,,,,,,,
93,PNS,30.4738158,-87.1867049,Pensacola International Airport,2430,Airport Blvd,Pensacola,Escambia County,FL,US,32504,Northeast Pensacola,,,,,,,,,
94,PSM,43.0802589,-70.8211285,Portsmouth International Airport at Pease,36,Airline Ave,Portsmouth,Rockingham County,NH,US,03801,Pease,,,2884,,,,,,
95,PVC,42.072367,-70.222247,Provincetown Municipal Airport,176,Race Point Rd,Provincetown,Barnstable County,MA,US,02657,,,,1528,,,,,,
96,ROA,37.320398,-79.9701915,Roanoke-Blacksburg Regional Airport,5202,Aviation Dr NW,Roanoke,,VA,US,24012,,,,,,,,,,
97,SJU,18.4372835,-66.0041299,Luis Muñoz Marín International Airport,,Av. Aeropuerto,Carolina,,Carolina,PR,00979,,"Cangrejo Arriba, Carolina, Puerto Rico",,,,,,,,
98,SWF,41.4984032,-74.1008627,New York Stewart International Airport SWF,1180,1st St,New Windsor,Orange County,NY,US,12553,,,,,,,,,,
99,TEB,40.858332,-74.0615292,Teterboro Airport,111,Industrial Ave,Teterboro,Bergen County,NJ,US,07608,,,,1021,,,,,,
100,THV,39.9232727,-76.8775606,York Aviation | York Airport,6054,W Lincoln Hwy,Thomasville,York County,PA,US,17364,,,Jackson Township,9799,,,,,,
101,USA,39.8560963,-104.6737376,Denver International Airport,8500,Peña Blvd,Denver,Denver County,CO,US,80249,,,,,,,,,,
102,ZXU,43.0285506,-81.14986429999999,London International Airport,1750,Crumlin Rd,London,Middlesex County,ON,CA,N5V 3B6,Airport,,,,,,,,,
103,HNL,21.3245132,-157.9250736,Daniel K. Inouye International Airport,300,Rodgers Blvd,Honolulu,Honolulu County,HI,US,96819,,,,,,,,,,
104,ITO,19.7188342,-155.0416866,Hilo International Airport,2450,Kekuanaoa St,Hilo,Hawaii County,HI,US,96720,,,,,,,,,,
105,KOA,19.736916,-156.0429246,Kona International Airport,73-200,Kupipi St,Kalaoa,Hawaii County,HI,US,96740,,,North Kona,,,,,,,
106,LIH,21.9788489,-159.3437585,Lihue Airport,3901,Mokulele Loop,Lihue,Kauai County,HI,US,96766,,,,,,,,,,
107,OGG,20.8967924,-156.4329379,Kahului Airport,1,Keolani Pl,Kahului,Maui County,HI,US,96732,,,,,,,,,,
108,CVG,39.0532746,-84.6630165,Cincinnati/Northern Kentucky International Airport,3087,Terminal Dr,Hebron,Boone County,KY,US,41048,,,,,,,,,,
109,DTW,42.2161722,-83.3553842,Detroit Metropolitan Wayne County Airport,,,Detroit,Wayne County,MI,US,48242,,,,,,,,,,
110,MSP,44.8847554,-93.2222846,Minneapolis−Saint Paul International Airport,,,,Hennepin County,MN,US,,,,,,,,,,,
111,SLC,40.7899404,-111.9790706,Salt Lake City International Airport,776,N Terminal Dr,Salt Lake City,Salt Lake County,UT,US,84122,,,,,,,,,,
112,CLT,35.2144026,-80.9473146,Charlotte Douglas International Airport,5501,Josh Birmingham Pkwy,Charlotte,Mecklenburg County,NC,US,28208,,,Charlotte,,,,,,,
113,CMH,39.9999399,-82.8871767,John Glenn Columbus International Airport,4600,International Gateway,Columbus,Franklin County,OH,US,43219,,,,,,,,,,
114,HSV,34.6403329,-86.77568989999999,Huntsville International Airport,1000,Glenn Hearn Blvd SW,Huntsville,Madison County,AL,US,35824,,,,,,,,,,
115,BFI,47.5281657,-122.3018264,Boeing Field,7277,Perimeter Rd S,Seattle,King County,WA,US,98108,,,,,,,,,,
116,GUM,13.4852976,144.8008119,Antonio B. Won Pat International Airport,355,Chalan Pasaheru,Tamuning,,,GU,96913,,,,,,B224-A,,,,
117,HRL,60.32104159999999,24.9528604,Helsinki Airport,,,Vantaa,,,FI,01531,,,,,,,,,,
118,LRD,27.5447829,-99.4613589,Laredo International Airport,5210,Bob Bullock Loop,Laredo,Webb County,TX,US,78041,,,,8801,,,,,,
119,MHR,38.5636592,-121.297211,Mather Airport,10425,Norden Ave,Mather,Sacramento County,CA,US,95655,,,,,,,,,,
120,PHX,33.4372686,-112.0077881,Phoenix Sky Harbor International Airport,3400,E Sky Harbor Blvd,Phoenix,Maricopa County,AZ,US,85034,Central City,,,,,,,,,
121,SBD,34.1005251,-117.24671,San Bernardino International Airport,1601,E 3rd St,San Bernardino,San Bernardino County,CA,US,92408,San Bernardino International Airport,,,,,100,,,,
122,SDF,38.175662,-85.7369231,Louisville International Airport,600,Terminal Dr,Louisville,Jefferson County,KY,US,40209,,,,,,,,,,
123,ESD,48.7048988,-122.9094161,Orcas Island Airport,147,Schoen Ln,Eastsound,San Juan County,WA,US,98245,,,Eastsound,5209,,,,,,
124,FBS,30.184635,-97.662436,Signature Flight Support AUS - Austin-Bergstrom Int'l Airport,4321,Emma Browning Ave,Austin,Travis County,TX,US,78719,,,,,,,,,,
125,FRD,48.5248261,-123.0261849,Friday Harbor Airport-Fhr,800,Franklin Rd,Friday Harbor,San Juan County,WA,US,98250,,,,9348,,,,,,
126,LKE,47.628574,-122.33983,,950,Westlake Ave N,Seattle,King County,WA,US,98109,Westlake,,,3523,,,,,,
127,RCE,30.28055,-81.809465,Herlong Recreational Airport,9300,Normandy Blvd,Jacksonville,Duval County,FL,US,32221,Southwest Jacksonville,,,5522,,,,,,
128,AFW,32.9875102,-97.3138822,Fort Worth Alliance Airport,2221,Alliance Blvd,Fort Worth,Tarrant County,TX,US,76177,,,,,,100,,,,
129,BDL,41.9388735,-72.68603139999999,Bradley International Airport,,Schoephoester Rd,Windsor Locks,Hartford County,CT,US,06096,,,,,,,,,,
130,BQN,18.4953957,-67.1355779,Rafael Hernández International Airport,,Hangar Rd,Aguadilla Pueblo,,Aguadilla,PR,00603,,,,,,,,,,
131,BTR,30.5323599,-91.15146100000001,Baton Rouge Metropolitan Airport,9430,Jackie Cochran Dr,Baton Rouge,East Baton Rouge Parish,LA,US,70811,,,,,,,,,,
132,CID,41.8863861,-91.70697539999999,The Eastern Iowa Airport,2121,Arthur Collins Pkwy SW,Cedar Rapids,Linn County,IA,US,52404,,,,,,,,,,
133,CLE,41.4057985,-81.8538669,Cleveland Hopkins International Airport,5300,Riverside Dr,Cleveland,Cuyahoga County,OH,US,44135,,,,,,,,,,
134,EFD,29.5999498,-95.16408009999999,Ellington Airport,,,Webster,Harris County,TX,US,77598,Southbelt / Ellington,,,,,,,,,
135,GDC,34.7556467,-82.3745441,Donaldson Airport,,Idaho Street,Greenville,Greenville County,SC,US,29605,,,,,,,,,,
136,GSO,36.1043671,-79.9351805,Piedmont Triad International Airport,1000,Ted Johnson Pkwy,Greensboro,Guilford County,NC,US,27409,,,,,,,,,,
137,JZT,32.6990607,-80.005979,,2744,Fort Trenholm Rd,Johns Island,Charleston County,SC,US,29455,,,,,,,,,,
138,LGB,33.8176974,-118.1523845,LGB,4100,Donald Douglas Dr,Long Beach,Los Angeles County,CA,US,90808,,,,,,,,,,
139,SHV,32.4544911,-93.8286552,Shreveport Regional Airport,5103,Hollywood Ave,Shreveport,Caddo Parish,LA,US,71109,,,Parish Governing Authority District 7,,,Suite 300,,,,
140,YIP,42.2378031,-83.5242868,Willow Run Airport,801,Willow Run Airport,Ypsilanti,,MI,US,48198,,,,0899,,,,,,
141,AGS,33.3735902,-81.973036,Augusta Regional Airport,1501,Aviation Way,Augusta,Richmond County,GA,US,30906,Industrial,,,,,,,,,
142,ANB,33.5915658,-85.8499032,,,,Anniston,Calhoun County,AL,US,36203,,,,,,,,,,
143,BRO,25.9063266,-97.4269855,Brownsville South Padre Island International Airport,700,Amelia Earhart Dr,Brownsville,Cameron County,TX,US,78521,,,,,,,,,,
144,BTL,42.298663,-85.2578135,W.K. Kellogg Airport,15551,S Airport Rd,Battle Creek,Calhoun County,MI,US,49015,,,,7644,,,,,,
145,CHS,32.8942676,-80.038159,Charleston International Airport,5500,International Blvd,North Charleston,Charleston County,SC,US,29418,,,,,,,,,,
146,DAY,39.90252419999999,-84.2217719,Dayton International Airport,3600,Terminal Dr,Dayton,Montgomery County,OH,US,45377,,,,,,,,,,
147,DCU,34.6590419,-86.9479374,Pryor Field Regional Airport,22511,Stearman Way,Tanner,Limestone County,AL,US,35671,,,,,,,,,,
148,DRT,29.3705861,-100.920213,Del Rio International Airport,1104,W 10th St,Del Rio,Val Verde County,TX,US,78840,,,,8503,,,,,,
149,FNT,42.9734164,-83.7388467,Bishop International Airport,3425,W Bristol Rd,Flint,Genesee County,MI,US,48507,,,,,,,,,,
150,FWA,40.9828674,-85.18844229999999,Fort Wayne Int'l Airport,3801,W Ferguson Rd,Fort Wayne,Allen County,IN,US,46809,,,Pleasant Township,,,,,,,
151,GFK,47.942861,-97.176582,Grand Forks International Airport,2301,Airport Dr,Grand Forks,Grand Forks County,ND,US,58203,,,,,,,,,,
152,GYY,41.6177844,-87.4083934,Gary/Chicago International Airport,6001,Airport Rd,Gary,Lake County,IN,US,46406,,,Calumet Township,,,,,,,
153,ICT,37.6508529,-97.42869879999999,Wichita Dwight D. Eisenhower National Airport,2277,Eisenhower Airport Pkwy,Wichita,Sedgwick County,KS,US,67209,,,,,,,,,,
154,MKG,43.16455209999999,-86.2380001,Muskegon County Airport (MKG),99,Sinclair Dr,Muskegon,Muskegon County,MI,US,49441,,,,5542,,,,,,
155,OPF,25.9074498,-80.2774304,OPF,14201,NW 42nd Ave,Opa-locka,Miami-Dade County,FL,US,33054,,,,2305,,,,,,
156,RFD,42.20218029999999,-89.0988607,Chicago Rockford International Airport,2,Airport Cir,Rockford,Winnebago County,IL,US,61109,,,Rockford Township,,,,,,,
157,RWI,35.8533082,-77.8989029,Rocky Mount-Wilson Regional Airport,,,Elm City,Nash County,NC,US,27822,,,Rocky Mt,,,,,,,
158,STP,44.9334686,-93.0601241,St Paul Downtown Airport,644,Bayfield St,St Paul,Ramsey County,MN,US,55107,Concord-Robert,,,1092,,,,,,
159,SUS,38.6634733,-90.6445777,Spirit of St Louis Airport - KSUS,18270,Edison Ave,Chesterfield,St Louis County,MO,US,63005,,,Chesterfield Township,,District of Freedom,,,,,
160,TOL,41.5878083,-83.80914109999999,Toledo Express Airport,11013,Airport Hwy,Swanton,Lucas County,OH,US,43558,,,,,,,,,,
161,TUL,36.198778,-95.88386589999999,Tulsa International Airport,7777,Airport Dr,Tulsa,Tulsa County,OK,US,74115,,,,,,,,,,
162,TYS,35.810833,-83.993889,McGhee Tyson Airport,2055,Alcoa Hwy,Alcoa,Blount County,TN,US,37701,,,,,,,,,,
163,VCV,34.5839839,-117.3787064,Southern California Logistics Airport,18374,Phantom W,Victorville,San Bernardino County,CA,US,92394,,,,,,,,,,
164,FNR,42.9734164,-83.7388467,Bishop International Airport,3425,W Bristol Rd,Flint,Genesee County,MI,US,48507,,,,,,,,,,
165,JNU,58.3579806,-134.5831791,Juneau International Airport,1873,Shell Simmons Dr,Juneau,Juneau,AK,US,99801,,,,,,,,,,
166,ABE,40.6518559,-75.43499419999999,Lehigh Valley International Airport,3311,Airport Rd,Allentown,Lehigh County,PA,US,18109,,,,,,,,,,
167,BNA,36.126317,-86.67737129999999,Nashville International Airport,1,Terminal Dr,Nashville,Davidson County,TN,US,37214,,,,,,,,,,
168,PDX,45.58976939999999,-122.5950942,Portland International Airport,7000,NE Airport Way,Portland,Multnomah County,OR,US,97218,Northeast Portland,,,,,,,,,
169,SCK,37.8968929,-121.2514811,Stockton Metropolitan Airport,5000,S Airport Way,Stockton,San Joaquin County,CA,US,95206,,,,,,,,,,
170,ALO,42.5552262,-92.3979652,Waterloo Regional Airport,2790,Livingston Ln,Waterloo,Black Hawk County,IA,US,50703,,,,,,,,,,
171,BAF,42.1583986,-72.7156067,Westfield-Barnes Regional Airport,110,Airport Rd,Westfield,Hampden County,MA,US,01085,,,,,,,,,,
172,BFF,41.8695184,-103.5934309,Western Nebraska Regional Airport,250023,Airport Rd,Scottsbluff,Scotts Bluff County,NE,US,69361,,,East Winters Creek,,,Suite 10,,,,
173,BIS,46.77518999999999,-100.7572447,Bismarck Airport,2301,University Dr,Bismarck,Burleigh County,ND,US,58504,,,,7595,,,,,,
174,BMG,39.14662999999999,-86.614088,Monroe County Airport,972,S Kirby Rd,Bloomington,Monroe County,IN,US,47403,,,Van Buren Township,9606,,,,,,
175,BMI,39.1774042,-76.6683922,Baltimore/Washington International Thurgood Marshall Airport,,,Baltimore,Anne Arundel County,MD,US,21240,,,5,,,,,,,
176,BZN,45.7771073,-111.1532346,Bozeman Yellowstone International Airport BZN,850,Gallatin Field Rd,Belgrade,Gallatin County,MT,US,59714,,,,,,,,,,
177,CHO,38.1394877,-78.4516149,Charlottesville–Albemarle Airport,100,Bowen Loop,Charlottesville,Albemarle County,VA,US,22911,Foxtrot One Hangars Condos,,White Hall,,,200,,,,
178,CPR,42.89727509999999,-106.4648786,Casper/Natrona County International Airport - KCPR,8500,Airport Pkwy,Casper,Natrona County,WY,US,82604,,,,,,,,,,
179,EVV,38.0433641,-87.52717539999999,Evansville Regional Airport,7801,Bussing Dr,Evansville,Vanderburgh County,IN,US,47725,,,Center Township,,,,,,,
180,LAN,42.7751565,-84.5901729,Capital Region International Airport,4100,Capitol City Blvd,Lansing,Clinton County,MI,US,48906,,,,,,,,,,
181,MSN,43.1390659,-89.33641279999999,Dane County Regional Airport,4000,International Ln,Madison,Dane County,WI,US,53704,,,,,,,,,,
182,MWA,37.7476115,-89.0099214,Veterans Airport of Southern Illinois,10400,Terminal Dr,Marion,Williamson County,IL,US,62959,,,West Marion Precinct,,,Unit 200,,,,
183,PGV,35.631926,-77.3798351,Pitt-Greenville Airport,400,Airport Rd,Greenville,Pitt County,NC,US,27834,,,,,,,,,,
184,SGF,37.244631,-93.39026559999999,Springfield-Branson National Airport,2300,N Airport Blvd,Springfield,Greene County,MO,US,65802,,,,,,,,,,
185,TUS,32.1145102,-110.9392269,Tucson International Airport,7250,S Tucson Blvd,Tucson,Pima County,AZ,US,85756,,,,,,,,,,
186,CRP,27.7724235,-97.5021829,Corpus Christi International Airport,1000,International Dr,Corpus Christi,Nueces County,TX,US,78406,,,,,,,,,,
187,FTW,32.8206921,-97.3598387,Fort Worth Meacham Int'l Airport,201,American Concourse,Fort Worth,Tarrant County,TX,US,76106,,,,,,,,,,
188,ISN,48.1776122,-103.6375502,Sloulin Field International Airport,421,Airport Rd,Williston,Williams County,ND,US,58801,,,,,,,,,,
189,LNK,40.8506586,-96.7581014,Lincoln Airport,2400,W Adams St,Lincoln,Lancaster County,NE,US,68524,,,,,,,,,,
190,LUK,39.1037781,-84.4293659,Lunken Municipal Airport of Cincinnati,262,Wilmer Ave,Cincinnati,Hamilton County,OH,US,45226,,,,,,,,,,
191,A1K,42.211977,-83.308627,,12900,Inkster Rd,Romulus,Wayne County,MI,US,48174,,,,2845,,,,,,
192,A20,35.0091317,-114.5658541,Sun Valley Airport,5050,Bison Ave,Fort Mohave,Mohave County,AZ,US,86426,,,,,,,,,,
193,AKN,58.67666699999999,-156.649167,King Salmon Airport,1,King Salmon Airport Rd,King Salmon,Bristol Bay,AK,US,99613,,,,,,,,,,
194,BRW,71.2874212,-156.7802701,Wiley Post-Will Rogers Memorial Airport,1749,Akavak St,Utqiagvik,North Slope,AK,US,99723,,,,,,,,,,
195,GAM,63.7688305,-171.7335006,Gambell Airport,,,Gambell,Nome,AK,US,99742,,,,,,,,,,
196,MCG,62.9527781,-155.605556,Mc Grath Airport-Mcg,,,McGrath,Yukon-Koyukuk,AK,US,99627,,,,,,,,,,
197,OME,64.5099347,-165.4435152,Nome Airport,227,Airport Rd,Nome,Nome,AK,US,99762,,,,,,,,,,
198,SCC,70.1984121,-148.4611183,Deadhorse Airport,1,Airport Way,Prudhoe Bay,North Slope,AK,US,99734,,,,,,,,,,
199,SVA,63.69070099999999,-170.4869862,Savoonga Airport,,Foot Trail,Savoonga,Nome,AK,US,99769,,,,,,,,,,
200,ACY,39.4515696,-74.57388499999999,Atlantic City International Airport,,,Egg Harbor Township,Atlantic County,NJ,US,08234,,,,,,,,,,
201,AEX,31.3274112,-92.5451856,Alexandria International Airport,1100,Frank Andrews Blvd,Alexandria,Rapides Parish,LA,US,71303,,,I,,,,,,,
202,CAE,33.941917,-81.1220015,Columbia Metropolitan Airport,3250,Airport Blvd,West Columbia,Lexington County,SC,US,29170,,,,,,,,,,
203,CEF,42.1796473,-72.5558413,Westover Airport,255,Padgette St,Chicopee,Hampden County,MA,US,01022,,,,1329,,,,,,
204,FAR,46.9198612,-96.8255648,Hector International Airport,2801,32nd Ave N,Fargo,Cass County,ND,US,58102,,,,,,,,,,
205,FAY,34.9910665,-78.887089,Fayetteville Regional Airport,400,Airport Rd,Fayetteville,Cumberland County,NC,US,28306,South View,,,,,,,,,
206,GPT,30.4131137,-89.0727778,Gulfport-Biloxi International Airport,14035,Airport Rd,Gulfport,Harrison County,MS,US,39503,,,,,,,,,,
207,ILM,34.2668931,-77.91052010000001,Wilmington International Airport,1740,Airport Blvd,Wilmington,New Hanover County,NC,US,28405,,,Cape Fear,8062,,,,,,
208,MYR,33.6822019,-78.92789429999999,Myrtle Beach International Airport,1100,Jetport Rd,Myrtle Beach,Horry County,SC,US,29577,,,,,,,,,,
209,PIE,27.9098674,-82.68885709999999,St. Pete–Clearwater International Airport,14700,Terminal Blvd,Clearwater,Pinellas County,FL,US,33762,,,,,,221,,,,
210,PWM,43.6464785,-70.30969739999999,Portland International Jetport,1001,Westbrook St,Portland,Cumberland County,ME,US,04102,,,,,,,,,,
211,SCE,40.8499873,-77.8486889,University Park Airport,2493,Fox Hill Rd,State College,Centre County,PA,US,16803,,,,,,,,,,
212,SFB,28.7793906,-81.2356859,Orlando Sanford International Airport,1200,Red Cleveland Blvd,Sanford,Seminole County,FL,US,32773,,,,,,,,,,
213,SHD,38.2638356,-78.89726399999999,Shenandoah Valley Regional Airport,77,Aviation Cir,Weyers Cave,Augusta County,VA,US,24486,,,Middle River,2706,,,,,,
214,TLH,30.3954074,-84.3450518,Tallahassee International Airport,3300,Capital Cir SW,Tallahassee,Leon County,FL,US,32310,,,,,,,,,,
215,XNA,36.2786587,-94.30429400000001,Northwest Arkansas Regional Airport,1,Airport Blvd,Bentonville,Benton County,AR,US,72712,,,Township 13,,,,,,,
216,YNG,41.2574658,-80.6671886,Youngstown-Warren Regional Airport,1453,Youngstown Kingsville Rd,Vienna Center,Trumbull County,OH,US,44473,,,,,,,,,,
217,JAN,32.3122283,-90.0764217,Jackson-Medgar Wiley Evers International Airport,100,International Dr,Jackson,Rankin County,MS,US,39208,,,,,,,,,,
218,RST,43.9112322,-92.4968854,Rochester International Airport,7600,Helgerson Dr SW,Rochester,Olmsted County,MN,US,55902,,,,,,,,,,
219,MFR,42.3730209,-122.8744669,Rogue Valley International-Medford Airport,1000,Terminal Loop Pkwy,Medford,Jackson County,OR,US,97504,,,,,,,,,,
220,CPS,38.577262,-90.158981,St. Louis Downtown Airport,6100,Archview Dr,Cahokia,St Clair County,IL,US,62206,,,Centreville Township,,,,,,,
221,PSP,33.8303194,-116.5070468,Palm Springs International Airport,3400,E Tahquitz Canyon Way,Palm Springs,Riverside County,CA,US,92262,,,,,,,,,,
222,APF,26.1521074,-81.77494759999999,Naples Airport,160,Aviation Dr N,Naples,Collier County,FL,US,34104,,,,3568,,,,,,
223,BBX,32.3068359,-90.0868662,,705,Airport Rd,Flowood,Rankin County,MS,US,39232,,,,3031,,,,,,
224,BDR,41.1642101,-73.12466719999999,Sikorsky Memorial Airport,1000,Great Meadow Rd,Stratford,Fairfield County,CT,US,06497,,,,,,,,,,
225,BKL,41.5115689,-81.6899155,Burke Lakefront Airport,1501,N Marginal Rd,Cleveland,Cuyahoga County,OH,US,44114,,,,,,,,,,
226,CTH,39.9800817,-75.86281129999999,Chester County Airport,1,Earhart Dr,Coatesville,Chester County,PA,US,19320,,,Valley Township,2771,,,,,,
227,CTX,42.5949627,-76.2152239,Cortland County Airport,255,Old Groton Rd,Cortland,Cortland County,NY,US,13045,,,Cortlandville,9237,,,,,,
228,EGE,39.6425637,-106.9145481,Eagle County Regional Airport,217,Eldon Wilson Rd,Gypsum,Eagle County,CO,US,81637,,,,9753,,,,,,
229,HFD,41.7374398,-72.64859659999999,Hartford–Brainard Airport,20,Lindbergh Dr,Hartford,Hartford County,CT,US,06114,South Meadows,,,2132,,,,,,
230,HTO,40.9611076,-72.2480058,,200,Daniels Hole Rd,Wainscott,Suffolk County,NY,US,11975,,,East Hampton,,,,,,,
231,HYA,41.6673379,-70.2847445,Barnstable Municipal Airport,480,Barnstable Rd,Barnstable,Barnstable County,MA,US,02601,Hyannis,,,,,,,,,
232,ILG,39.6802039,-75.6034614,New Castle Airport,151,N Dupont Hwy,New Castle,New Castle County,DE,US,19720,,,,3127,,# 11,,,,
233,LCI,43.5732344,-71.42525239999999,Laconia Airport Authority,65,Aviation Dr,Gilford,Belknap County,NH,US,03249,,,,,,,,,,
234,LNS,40.1187769,-76.29937029999999,Lancaster Airport,500,Airport Rd,Lititz,Lancaster County,PA,US,17543,,,Manheim Township,,,Suite G,,,,
235,MI6,43.03491289999999,-81.1652196,,2480,Huron St,London,Middlesex County,ON,CA,N5V 0B1,Airport,,,,London International Airport,4,,,,
236,MLI,41.4496341,-90.50827059999999,Quad City International Airport,2200,69th Ave,Moline,Rock Island County,IL,US,61265,,,,,,,,,,
237,MMU,40.7975621,-74.4157549,Morristown Airport,8,Airport Rd,Morristown,Morris County,NJ,US,07960,,,,4624,,,,,,
238,MTP,41.0730438,-71.9240112,Montauk Airport (KMTP),428,E Lake Dr,Montauk,Suffolk County,NY,US,11954,,,East Hampton,,,,,,,
239,NJ8,40.6895314,-74.1744624,Newark Liberty International Airport,3,Brewster Rd,Newark,,NJ,US,07114,,,,,,,,,,
240,OSU,40.0774611,-83.0734688,The Ohio State University Airport,2160,W Case Rd,Columbus,Franklin County,OH,US,43235,Don Scott,,,,,,,,,
241,OXC,41.4806021,-73.13643569999999,Waterbury-Oxford Airport,300,Christian St,Oxford,New Haven County,CT,US,06478,,,,1022,,,,,,
242,PHF,37.1307716,-76.4939006,Newport News/Williamsburg International Airport,900,Bland Blvd,Newport News,,VA,US,23602,,,,,,,,,,
243,PTK,42.6640988,-83.4202318,Oakland County International Airport,6500,Highland Rd,Waterford Twp,Oakland County,MI,US,48327,,,,,,,,,,
244,RUT,43.5280396,-72.95047389999999,Rutland Southern Vermont Regional Airport,1002,Airport Rd,Clarendon,Rutland County,VT,US,05759,North Clarendon,,,,,,,,,
245,JWY,32.4535404,-96.91542129999999,Mid-Way Regional Airport,131,Airport Dr,Midlothian,Ellis County,TX,US,76065,,,,,,,,,,
246,BUR,34.1983122,-118.3574036,Hollywood Burbank Airport,2627,N Hollywood Way,Burbank,Los Angeles County,CA,US,91505,NoHo,,,,,,,,,
247,ABQ,35.0433333,-106.6129085,Albuquerque International Sunport,2200,Sunport Blvd,Albuquerque,Bernalillo County,NM,US,87106,,,,,,,,,,
248,AIA,42.0619091,-102.806985,Alliance Municipal Airport,5631,Sarpy Rd,Alliance,Box Butte County,NE,US,69301,,,Box Butte-Wright-Lake,6052,,,,,,
249,COS,38.801712,-104.7026039,Colorado Springs Airport,7770,Milton E Proby Pkwy,Colorado Springs,El Paso County,CO,US,80916,,,,,,,,,,
250,CVN,34.4265479,-103.0785154,Clovis Municipal Airport,459,County Rd 11.5,Texico,Curry County,NM,US,88135,,,,,,,,,,
251,FAT,36.7758493,-119.7181083,Fresno Yosemite International Airport,5175,E Clinton Way,Fresno,Fresno County,CA,US,93727,McLane,,,,,,,,,
252,MCK,28.4311577,-81.308083,Orlando International Airport,1,Jeff Fuqua Blvd,Orlando,Orange County,FL,US,32827,Southeast Orlando,,,,,,,,,
253,PSC,46.2631697,-119.1175903,Tri-Cities Airport,3601,N 20th Ave,Pasco,Franklin County,WA,US,99301,,,,,,,,,,
254,TVF,48.06558219999999,-96.1795806,Thief River Falls Regional Airport,13722,Airport Dr,Thief River Falls,Pennington County,MN,US,56701,,,Rocksbury Township,,,,,,,
255,VEL,40.4426524,-109.5137786,Vernal Regional Airport,760 E,800 S,Vernal,Uintah County,UT,US,84078,,,,,,,,,,
256,CKB,39.2967239,-80.231201,North Central West Virginia Airport,2000,Aviation Way,Bridgeport,Harrison County,WV,US,26330,,,Eastern,,,,,,,
257,CLL,30.5936801,-96.36660529999999,Easterwood Airport,1,McKenzie Terminal Blvd,College Station,Brazos County,TX,US,77845,,,,,,,,,,
258,CMI,40.03649619999999,-88.26398789999999,Willard Airport,11,Airport Rd,Savoy,Champaign County,IL,US,61874,,,Tolono Township,,,,,,,
259,DQK,31.2548331,-81.46691109999999,Brunswick Golden Isles Airport,295,Aviation Pkwy,Brunswick,Glynn County,GA,US,31525,,,,7801,,,,,,
260,HOU,29.6459077,-95.27690539999999,William P. Hobby Airport,7800,Airport Blvd,Houston,Harris County,TX,US,77061,Southeast Houston,,,,,,,,,
261,LAW,34.5726626,-98.4159133,Lawton-Fort Sill Regional Airport,3401,SW 11th St,Lawton,Comanche County,OK,US,73501,,,,,,,Terminal,,,
262,MUO,43.0664594,-115.8550613,Mountain Home Air Force Base,366,Gunfighter Ave,Mountain Home AFB,Elmore County,ID,US,83648,,,,,,,,,,
263,NC1,35.2144026,-80.9473146,Charlotte Douglas International Airport,5501,Josh Birmingham Pkwy,Charlotte,Mecklenburg County,NC,US,28208,,,Charlotte,,,,,,,
264,NGU,36.9437697,-76.28894439999999,,,Bellinger Blvd,Norfolk,,VA,US,23511,,,,,,,,,,
265,NIP,30.2230864,-81.6851945,,,,Jacksonville,Duval County,FL,US,32212,Southwest Jacksonville,,,,,,,,,
266,SPI,39.8439165,-89.6783951,Abraham Lincoln Capital Airport,1200,Capital Airport Dr,Springfield,Sangamon County,IL,US,62707,,,,,,,,,,
267,PSE,18.0106207,-66.5632546,Mercedita/Ponce International Airport,,PR-1,Ponce,Vayas,Ponce,PR,00715,,,,,,,,,,
268,ANI,61.5787947,-159.5345762,,,,Aniak,Bethel,AK,US,99557,,,,,,,,,,
269,BET,60.77972200000001,-161.8377779,Bethel Airport,,,Bethel,Bethel,AK,US,99559,,,,,,,,,,
270,DLG,59.0420062,-158.508371,Dillingham Airport,803,Airport Rd,Dillingham,Dillingham,AK,US,99576,,,,,,,,,,
271,KSM,62.061601,-163.3006838,St Mary's Airport,,Airport Rd,St Mary's,Kusilvak Census Area,AK,US,99658,,,,,,,,,,
272,MFE,26.1780926,-98.24103629999999,McAllen International Airport,2500,S Bicentennial Blvd,McAllen,Hidalgo County,TX,US,78503,,,,,,,,,,
273,OTZ,66.8913694,-162.6024888,Ralph Wien Memorial Airport,100,Airport Access Rd,Kotzebue,Northwest Arctic,AK,US,99752,,,,,,,,,,
274,RDB,68.0291366,-162.9183348,Red Dog Airport,,,Kotzebue,Northwest Arctic,AK,US,99752,,,,,,,,,,
275,UNK,63.8885069,-160.7993314,Unalakleet Airport,,Airport Rd,Unalakleet,Nome,AK,US,99684,,,,,,,,,,
276,CSG,32.516315,-84.9388298,Columbus Airport,3250,W Britt David Rd,Columbus,Muscogee County,GA,US,31909,,,,,,,,,,
277,SIG,18.4557662,-66.0979534,Fernando Luis Ribas Dominicci Airport,,Calle Lindbergh,San Juan,,San Juan,PR,00901,,Santurce,,,,,,,,
278,VQS,18.1352726,-65.4913286,Antonio Rivera Rodríguez Airport,,PR-200,Vieques,,Vieques,PR,00765,,,,,,,,,,
279,CNM,33.3699704,-7.585723100000001,Casablanca Mohammed V International Airport,,Route de Nouasseur,Casablanca,,Casablanca-Settat,MA,,,,,,,,,,,
280,FXE,26.1974892,-80.1706483,Fort Lauderdale Executive Airport,6000,NW 21st Ave,Fort Lauderdale,Broward County,FL,US,33309,North Fort Lauderdale,,,6642,,,,,,
281,IDP,37.1564389,-95.7730042,Independence Municipal Airport,499,Freedom Dr,Independence,Montgomery County,KS,US,67301,,,,,,,,,,
282,MEI,32.333547,-88.7451526,Meridian Regional Airport,,,Meridian,Lauderdale County,MS,US,39307,,,,,,,,,,
283,MKC,39.121108,-94.590007,Charles B. Wheeler Downtown Airport,900,Richards Rd,KCMO,Clay County,MO,US,64116,,,Gallatin Township,,,,,,,
284,PIA,40.6608469,-89.69008629999999,General Wayne A. Downing Peoria International Airport,6100 W,Everett McKinley Dirksen Pkwy,Peoria,Peoria County,IL,US,61607,,,Limestone Township,,,,,,,
285,RSN,32.5142913,-92.5885449,Ruston Regional Airport,,,Ruston,Lincoln Parish,LA,US,71270,,,10,,,,,,,
286,SLE,44.9078414,-123.0018514,Salem Municipal Airport,2990,25th St SE,Salem,Marion County,OR,US,97302,Southeast Mill Creek,,,,,,,,,
287,SQV,48.09814799999999,-123.187123,Sequim Valley Airport,468,Dorothy Hunt Ln,Sequim,Clallam County,WA,US,98382,,,,,,,,,,
288,VWE,39.9841096,-82.8713834,,379,N Hamilton Rd,Columbus,Franklin County,OH,US,43213,,,,1313,,,,,,
289,EDW,34.9240314,-117.8912085,,,,Edwards AFB,Kern County,CA,US,,,,,,,,,,,
290,FCA,41.7998868,12.2462384,Leonardo da Vinci International Airport,,Via dell' Aeroporto di Fiumicino,Fiumicino,RM,Lazio,IT,00054,,,Fiumicino,,,,,,,
291,PPG,-14.331389,-170.711389,Pago Pago International Airport,,,Tafuna,Tualauta,Western District,AS,,,,,,,,,,,
292,PDK,33.8749586,-84.30281629999999,DeKalb-Peachtree Airport,2000,Airport Rd,Atlanta,Dekalb County,GA,US,30341,,,,,,,,,,
293,HOM,59.643151,-151.4928655,Homer Airport,3720,Faa St,Homer,Kenai Peninsula Borough,AK,US,99603,,,,8038,,# 110,,,,
294,KEB,59.3515291,-151.9255449,Nanwalek Airport-Keb,,,Nanwalek,Kenai Peninsula Borough,AK,US,99603,,,,,,,,,,
295,PGM,59.349254,-151.8309863,Port Graham Airport,63638,Port Graham Rem SW,Homer,Kenai Peninsula Borough,AK,US,99603,,,,,,,,,,
296,ALS,37.4438466,-105.8645118,San Luis Valley Regional Airport,2490,State Ave,Alamosa,Alamosa County,CO,US,81101,,,,,,,,,,
297,DDC,37.765874,-99.9669004,Dodge City Regional Airport,100,Airport Rd,Dodge City,Ford County,KS,US,67801,,,,9350,,,,,,
298,HHR,33.9227922,-118.3344882,Hawthorne Municipal Airport,12101,Crenshaw Blvd,Hawthorne,Los Angeles County,CA,US,90250,,,,,,#1,,,,
299,MCE,37.2860595,-120.5144592,Merced Regional Airport,20,Macready Dr,Merced,Merced County,CA,US,95341,,,,,,,,,,
300,MSL,34.7451895,-87.6117237,Northwest Alabama Regional Airport,1729,T Ed Campbell Dr,Muscle Shoals,Colbert County,AL,US,35661,,,,,,,,,,
301,SMO,34.0178143,-118.4473286,Santa Monica Airport,3233,Donald Douglas Loop S,Santa Monica,Los Angeles County,CA,US,90405,Sunset Park,,,,,,,,,
302,VPC,34.1222471,-84.8499435,,119,Dallas Hwy SW,Cartersville,Bartow County,GA,US,30120,,,,,,,,,,
303,A27,50.8334678,-0.2906287,Brighton City Airport,,Cecil Pashley Way,,West Sussex,England,GB,BN43 5FF,,,,,,,,Shoreham-by-Sea,,
304,CIK,66.6447422,-143.7405917,Chalkyitsik Airport,,Steese Hwy,Chalkyitsik,Yukon-Koyukuk,AK,US,99788,,,,,,,,,,
305,CXF,67.25372349999999,-150.1989298,Coldfoot Airport,,,Fairbanks,Yukon-Koyukuk,AK,US,99701,,,,,,,,,,
306,FAI,64.8164163,-147.8635168,Fairbanks International Airport,6450,Airport Way,Fairbanks,Fairbanks North Star,AK,US,99709,,,,,,,,,,
307,FYU,66.5715841,-145.24966,Fort Yukon Airport,200,Airport Way,Fort Yukon,Yukon-Koyukuk,AK,US,99740,,,,,,,,,,
308,IRC,65.826191,-144.0762337,Circle City Airport-CRC,,Steese Hwy,Circle,Yukon-Koyukuk,AK,US,99733,,,,,,,,,,
309,KYU,64.875833,-157.727222,,,,Koyukuk,Yukon-Koyukuk,AK,US,99754,,,,,,,,,,
310,MLY,64.9968105,-150.6442677,Manley Hot Springs Airport,100,Landing road,Manley Hot Springs,Yukon-Koyukuk,AK,US,99756,,,,,,,,,,
311,MNT,65.1476801,-149.3660603,Minto Al Wright Airport,,,Fairbanks,Yukon-Koyukuk,AK,US,99709,,,,,,,,,,
312,SVS,55.9736482,37.412503,Sheremetyevo - A.S. Pushkin international airport,,,Khimki,Gorod Khimki,МО,RU,141400,,,Klyaz'ma-Starbeyevo,,,,,,,
313,VEE,67.00885199999999,-146.3672064,Venetie Airport-Vee,,,Venetie,Yukon-Koyukuk,AK,US,99781,,,,,,,,,,
314,WBQ,66.3623642,-147.4048948,Beaver Airport,,,Beaver,Yukon-Koyukuk,AK,US,99724,,,,,,,,,,
315,EUG,44.1217811,-123.2159003,Eugene Airport,28801,Douglas Dr,Eugene,Lane County,OR,US,97402,,,,,,,,,,
316,DUT,53.8983407,-166.5442157,Unalaska Airport,,Airport Beach Rd,Unalaska,Aleutians West,AK,US,99692,Dutch Harbor,,,,,,,,,
317,GAL,64.737027,-156.952618,Edward G Pitka Sr Airport (GAL),,Galena Airport,Galena,Yukon-Koyukuk,AK,US,99741,,,,,,,,,,
318,PTA,36.1043671,-79.9351805,Piedmont Triad International Airport,1000,Ted Johnson Pkwy,Greensboro,Guilford County,NC,US,27409,,,,,,,,,,
319,BVU,35.9482607,-114.8551759,Boulder City Municipal Airport,,Airport Rd,Boulder City,Clark County,NV,US,89005,,,,,,,,,,
320,MRI,61.215917,-149.8419311,Merrill Field Airport,800,Merrill Field Dr,Anchorage,Anchorage,AK,US,99501,Airport Heights Community Council,,,4129,,,,,,
321,SKW,61.9646078,-151.187926,,,,Skwentna,Matanuska-Susitna,AK,US,99667,,,,,,,,,,
322,TYE,35.810833,-83.993889,McGhee Tyson Airport,2055,Alcoa Hwy,Alcoa,Blount County,TN,US,37701,,,,,,,,,,
323,XWA,48.2586433,-103.7481609,Williston Basin International Airport,14127,Jensen Ln,Williston,Williams County,ND,US,58801,,,Mont,,,,,,,
324,MWH,47.20807869999999,-119.3176918,Grant County International Airport-MWH,7810,Andrews St NE,Moses Lake,Grant County,WA,US,98837,,,,3204,,,,,,
325,SUN,43.5066901,-114.2992901,Friedman Memorial Airport,1616,Airport Cir,Hailey,Blaine County,ID,US,83333,,,,,,,,,,
326,AUO,32.6145847,-85.43268739999999,Auburn University Regional Airport,2150,Mike Hubbard Boulevard,Auburn,Lee County,AL,US,36830,,,,,,,,,,
327,BCB,37.2068203,-80.4080343,Virginia Tech Montgomery Executive Airport,1601,Tech Center Dr,Blacksburg,Montgomery County,VA,US,24060,University,,E-01,,,,,,,
328,BFP,40.7738956,-80.3902245,Beaver County Airport-Bvi,15,Piper St,Beaver Falls,Beaver County,PA,US,15010,,,Chippewa Township,1043,,,,,,
329,BHB,44.4450987,-68.3621263,Hancock County-Bar Harbor Airport,115,Caruso Dr,Trenton,Hancock County,ME,US,04605,,,,,,,,,,
330,BLM,40.1807259,-74.12166049999999,Monmouth Jet Center,1717,NJ-34,Wall Township,Monmouth County,NJ,US,07727,,,,,,,,,,
331,EWB,41.675297,-70.95818799999999,New Bedford Regional Airport,1569,Airport Road,New Bedford,Bristol County,MA,US,02746,,,,,,,,,,
332,FCM,44.8271762,-93.46107769999999,Flying Cloud Airport (FCM),10110,Flying Cloud Dr,Eden Prairie,Hennepin County,MN,US,55347,,,,,,,,,,
333,ITH,42.4910812,-76.4584974,Ithaca Tompkins International Airport,1,Culligan Dr,Ithaca,Tompkins County,NY,US,14850,,,,,,,,,,
334,PBG,44.6520597,-73.46792030000002,Plattsburgh International Airport,42,Airport Ln,Plattsburgh,Clinton County,NY,US,12903,,,,,,,,,,
335,PKB,39.3450497,-81.43819479999999,Mid-Ohio Valley Regional Airport,543,Co Rte 31/1,Williamstown,Wood County,WV,US,26187,,,Williams,,,,,,,
336,PNE,40.078124,-75.0098314,Northeast Philadelphia Airport,9800,Ashton Rd,Philadelphia,Philadelphia County,PA,US,19114,Northeast Philadelphia,,,,,,,,,
337,SSI,31.1537482,-81.3890863,McKinnon St. Simons Island Airport,115,Terminal Way,St Simons,Glynn County,GA,US,31522,,,,,,,,,,
338,SUA,27.1781916,-80.2244544,Witham Field,2011,SE Airport Rd,Stuart,Martin County,FL,US,34996,,,,,,,,,,
339,TTN,40.2769993,-74.8179505,Trenton-Mercer Airport,1100,Terminal Cir Dr,Ewing Township,Mercer County,NJ,US,08628,,,,,,,,,,
340,VRB,27.6548922,-80.4164964,Vero Beach Regional Airport,3400,Cherokee Dr,Vero Beach,Indian River County,FL,US,32960,,,,7977,,,,,,
341,AZO,42.2355515,-85.5515933,Kalamazoo/Battle Creek Int'l Airport,5235,Portage Rd,Portage,Kalamazoo County,MI,US,49002,,,,,,,,,,
342,CAK,40.9153779,-81.4418833,Akron-Canton Airport,5400,Lauby Rd,North Canton,,OH,US,44720,,,,,,,,,,
343,ELM,42.1604316,-76.8921794,Elmira Corning Regional Airport,276,Sing Sing Rd,Horseheads,Chemung County,NY,US,14845,,,Big Flats,,,1,,,,
344,GRR,42.8846633,-85.5248434,Gerald R. Ford International Airport,5500,44th St SE,Grand Rapids,Kent County,MI,US,49512,,,Cascade Township,,,,,,,
345,HLN,46.6095791,-111.9902266,Helena Regional Airport,2850,Mercer Loop,Helena,Lewis and Clark County,MT,US,59602,,,,,,,,,,
346,DTO,33.20119,-97.19658199999999,Denton Enterprise Airport,5000,Airport Rd,Denton,Denton County,TX,US,76207,,,,4504,,,,,,
347,MQY,36.004326,-86.52589499999999,Smyrna/Rutherford County Airport Authority,278,Doug Warpoole Rd,Smyrna,Rutherford County,TN,US,37167,,,,,,,,,,
348,SKF,41.963161,21.6223532,Skopje International Airport,,,Petrovec,,Municipality of Ilinden,MK,1043,,,,,,,,,,
349,HNH,58.0985477,-135.4119325,Hoonah Airport,700,Airport Rd,Hoonah,Hoonah-Angoon,AK,US,99829,,,,,,,,,,
350,KAE,56.96451039999999,-133.9158263,Kake Airport,,,Kake,Petersburg Borough,AK,US,99830,,,,,,,,,,
351,PTD,44.6755044,-74.9498891,Potsdam Municipal Airport-PTD,150,Hatch Rd,Potsdam,St Lawrence County,NY,US,13676,,,Potsdam,6301,,,,,,
352,SGY,59.4538434,-135.3264037,Skagway Airport,2,Klondike Hwy,Skagway,Skagway,AK,US,99840,,,,,,,,,,
353,SIT,57.05277169999999,-135.3651952,Sitka Rocky Gutierrez Airport Terminal,601,Airport Rd,Sitka,Sitka,AK,US,99835,,,,,,,,,,
354,ATY,44.9213411,-97.1611629,Watertown Regional Airport,2416,Boeing Ave,Watertown,Codington County,SD,US,57201,,,,,,,,,,
355,DAB,29.1832134,-81.0532273,Daytona Beach International Airport,700,Catalina Dr,Daytona Beach,Volusia County,FL,US,32114,Daytona Beach International Airport,,,,,,,,,
356,HTS,38.3693378,-82.5557309,Huntington Tri-State Airport,1449,Co Rte 3/1,Huntington,Wayne County,WV,US,25704,,,Ceredo,9043,,,,,,
357,BWG,36.962507,-86.4269221,Bowling Green Airport,1000,Woodhurst St,Bowling Green,Warren County,KY,US,42103,,,,,,,,,,
358,CLU,39.25566389999999,-85.8971316,Columbus Municipal Airport,4770,Ray Boll Blvd,Columbus,Bartholomew County,IN,US,47203,,,,,,,,,,
359,HKS,32.334457,-90.222168,Hawkins Field Airport,558,W Ramp St,Jackson,Hinds County,MS,US,39209,,,,3429,,,,,,
360,HLM,42.7957247,-86.1627543,Park Township Office,1269,Ottawa Beach Rd,Holland,Ottawa County,MI,US,49424,,,Park Township,2564,,,,,,
361,HUF,39.4617995,-87.3034804,Terre Haute Regional Airport,,S Airport St,Terre Haute,Vigo County,IN,US,47803,,,Lost Creek Township,,,,,,,
362,IAG,43.1085782,-78.94711439999999,Niagara Falls International Airport,2035,Niagara Falls Blvd,Niagara Falls,Niagara County,NY,US,14304,,,,1617,,,,,,
363,MRC,35.5553939,-87.18229149999999,Maury County Regional Airport,1200,N Main St,Mt Pleasant,Maury County,TN,US,38474,,,,,,,,,,
364,OGD,41.1934018,-112.0088619,Ogden-Hinckley Airport,3909,Airport Rd,Ogden,Weber County,UT,US,84405,,,,,,,,,,
365,ROW,33.3024615,-104.5257536,Roswell International Air Center,1,Jerry Smith Cir,Roswell,Chaves County,NM,US,88203,,,,,,,,,,
366,TRI,36.48167310000001,-82.4077169,Tri-Cities Airport,2525,TN-75,Blountville,Sullivan County,TN,US,37617,,,,,,Suite 301,,,,
367,AMA,35.2203245,-101.7074509,Rick Husband Amarillo International Airport,10801,Airport Blvd,Amarillo,Potter County,TX,US,79111,,,,,,,,,,
368,CRW,38.3714489,-81.5934922,Yeager Airport,100,Airport Rd,Charleston,Kanawha County,WV,US,25311,,,District 4,,,175,,,,
369,MTJ,38.5002349,-107.8992134,Montrose Regional Airport,2100,Airport Rd,Montrose,Montrose County,CO,US,81401,,,,,,,,,,
370,RIV,33.890884,-117.2617329,,,,March Air Reserve Base,Riverside County,CA,US,,,,,,,,,,,
371,TUP,34.2662432,-88.76633400000001,Tupelo Regional Airport,2763,W Jackson Street Extended,Tupelo,Lee County,MS,US,38801,,,,0306,,,,,,
372,AKB,52.2181152,-174.2062754,,,,Atka,Aleutians West,AK,US,99547,,,,,,,,,,
373,ATT,60.86385920000001,-162.2737354,,,,Atmautluak,Bethel,AK,US,99559,,,,,,,,,,
374,AUK,30.19747109999999,-97.66635289999999,Austin-Bergstrom International Airport,3600,Presidential Blvd,Austin,Travis County,TX,US,78719,,,,,,,,,,
375,CDB,55.2022911,-162.7197027,Cold Bay Airport-Cdb,1,Flying Tiger Way,Cold Bay,Aleutians East,AK,US,99571,,,,,,,,,,
376,CLP,58.8371397,-158.5257459,Clarks Point Airport,,,Clark's Point,Dillingham,AK,US,99569,,,,,,,,,,
377,CYF,60.137934,-164.2820767,,,,,Bethel,AK,US,,,,,,,,,,,
378,CZF,61.7814067,-166.039795,,,,,Kusilvak Census Area,AK,US,99662,,,,,,,,,,
379,EEK,60.2147333,-162.0435994,Eek Airport-Eek,,,Eek,Bethel,AK,US,99578,,,,,,,,,,
380,EGX,52.82937399999999,-1.332134,East Midlands Airport,,,Castle Donington,Leicestershire,England,GB,DE74 2SA,,,,,,,,Derby,,
381,EHM,58.64462589999999,-162.0546613,,,,,Bethel,AK,US,99559,,,,,,,,,,
382,EMK,52.82937399999999,-1.332134,East Midlands Airport,,,Castle Donington,Leicestershire,England,GB,DE74 2SA,,,,,,,,Derby,,
383,ENA,60.56501,-151.2467651,Kenai Municipal Airport,305,N Willow St,Kenai,Kenai Peninsula Borough,AK,US,99611,,,,9118,,,,,,
384,HPB,61.52314810000001,-166.1456027,Hooper Bay Airport,,,Hooper Bay,Kusilvak Census Area,AK,US,99604,,,,,,,,,,
385,IGG,59.3254706,-155.8991664,,,,Igiugig,Lake and Peninsula,AK,US,99613,,,,,,,,,,
386,IKO,35.4094523,51.1552063,IKIA,,Road,Qom,,Tehran Province,IR,,,,,,,,,,,
387,KCG,56.3078555,-158.376133,,,,Chignik,Lake and Peninsula,AK,US,99564,,,,,,,,,,
388,KCQ,39.2991181,-94.7107786,Kansas City International Airport,,,KCMO,Platte County,MO,US,64153,,,,,,,,,,
389,KFP,40.2388679,-75.2416489,,32,Airport Square,North Wales,Montgomery County,PA,US,19454,,,Montgomery Township,,,,,,,
390,KGK,-1.9630791,30.1350038,Kigali International Airport,,KN 5 Rd,Kigali,Kicukiro,Kigali City,RW,,,,,,,,,,,
391,KKH,59.95915429999999,-162.8818325,,,,Kongiganak,Bethel,AK,US,99559,,,,,,,,,,
392,KKI,39.2991181,-94.7107786,Kansas City International Airport,,,KCMO,Platte County,MO,US,64153,,,,,,,,,,
393,KLG,61.53628980000001,-160.3436107,Kalskag Airport,,,Lower Kalskag,Bethel,AK,US,99607,,,,,,,,,,
394,KLL,2.7455962,101.7071602,Kuala Lumpur Int'l Airport,,,Sepang,,Selangor,MY,64000,,,,,,,,,,
395,KMO,58.9358015,-158.899002,Manokotak Airport-MBA,,Airstrip Rd,Manokotak,Dillingham,AK,US,99628,,,,,,,,,,
396,KNW,30.0385136,-90.0264057,New Orleans Lakefront Airport,6001,Stars and Stripes Blvd,New Orleans,Orleans Parish,LA,US,70126,,,,8065,,219,,,,
397,KOT,63.0313641,-163.5306586,Kotlik Airport,,,Kotlik,Kusilvak Census Area,AK,US,99620,,,,,,,,,,
398,KPN,59.935218,-164.0328251,Kipnuk Airport-Iik,,,Kipnuk,Bethel,AK,US,99614,,,,,,,,,,
399,KPV,55.908062,-159.1585839,,,,,Lake and Peninsula,AK,US,99648,,,,,,,,,,
400,KUK,60.8748776,-162.5237561,Kasigluk Airport-Z09,,,Kasigluk,Bethel,AK,US,99609,,,,,,,,,,
401,KVC,55.1150043,-162.2743081,King Cove Airport,,,King Cove,Aleutians East,AK,US,99612,,,,,,,,,,
402,KWK,59.87605019999999,-163.1679794,Kwigillingok Airport-GGV,,Airport Rd,Kwigillingok,Bethel,AK,US,99622,,,,,,,,,,
403,KWN,59.7576013,-161.8795132,Quinhagak Airport,,,Quinhagak,Bethel,AK,US,99655,,,,,,,,,,
404,KWT,60.7923876,-161.4402249,,,,Kwethluk,Bethel,AK,US,99621,,,,,,,,,,
405,MLL,61.8663169,-162.0337226,,,,Marshall,Kusilvak Census Area,AK,US,,,,,,,,,,,
406,MOU,62.0954189,-163.6824142,Mountain Village Airport,,New Airport Rd,Mountain Village,Kusilvak Census Area,AK,US,99632,,,,,,,,,,
407,NLG,56.00747999999999,-161.1594611,Nelson Lagoon Airport-Oul,,,Nelson Lagoon,Aleutians East,AK,US,99571,,,,,,,,,,
408,NME,60.4713961,-164.7000955,Nightmute Airport-IGT,,,Nightmute,Bethel,AK,US,99690,,,,,,,,,,
409,NUP,60.9074735,-162.4393996,Nunapitchuk Airport-16A,,,Nunapitchuk,Bethel,AK,US,99609,,,,,,,,,,
410,OOK,60.53785800000001,-165.0894221,Toksook Bay Airport-Ook,,,Toksook Bay,Bethel,AK,US,99637,,,,,,,,,,
411,PIP,57.57853129999999,-157.5706926,Pilot Point Airport,,,Pilot Point,Lake and Peninsula,AK,US,99649,,,,,,,,,,
412,PML,37.8602308,-120.177437,Pine Mountain Lake Airport,20980,Elderberry Way,Groveland,Tuolumne County,CA,US,95321,,,,9335,,,,,,
413,PQS,61.93451919999999,-162.8982483,,,,Pilot Station,Kusilvak Census Area,AK,US,99650,,,,,,,,,,
414,PTH,56.958524,-158.6387986,Port Heiden Airport,,,Port Heiden,Lake and Peninsula,AK,US,99549,,,,,,,,,,
415,RSH,61.7758317,-161.3192273,Russian Mission Airport,,Nunvotchuk Lake Access Rd,Russian Mission,Kusilvak Census Area,AK,US,99657,,,,,,,,,,
416,SCM,61.8446667,-165.5745121,Scammon Bay Airport-Scm,,,Scammon Bay,Kusilvak Census Area,AK,US,99662,,,,,,,,,,
417,SRV,61.7895209,-156.5885419,Stony River 2 Airport,,,Stony River,Bethel,AK,US,99557,,,,,,,,,,
418,SXP,62.52010649999999,-164.8480699,,,,Nunam Iqua,Kusilvak Census Area,AK,US,99666,,,,,,,,,,
419,TNK,60.5756227,-165.271879,,,,Tununak,Bethel,AK,US,,,,,,,,,,,
420,TOG,59.053966,-160.3966979,,,,Togiak,Dillingham,AK,US,99678,,,,,,,,,,
421,TWA,40.6455081,-73.7779546,,,,,Queens County,NY,US,11430,,Queens,,1962,,,,,,
422,VAK,61.54034910000001,-165.5989836,Chevak Airport,,Sandpiper St,Chevak,Kusilvak Census Area,AK,US,99563,,,,,,,,,,
423,WSN,58.70428149999999,-157.0033206,,,,South Naknek,Bristol Bay,AK,US,99633,,,,,,,,,,
424,WTL,60.33786860000001,-162.6629156,Tuntutuliak Airport-A61,,,Tuntutuliak,Bethel,AK,US,99680,,,,,,,,,,
425,WWT,60.93702560000001,-164.6370297,Newtok Airport-EWU,,,Newtok,Bethel,AK,US,99559,,,,,,,,,,
426,CGA,39.2510795,9.0556777,Cagliari Elmas Airport,,Via dei Trasvolatori,,CA,Sardegna,IT,09067,,,Elmas,,,,,,,
427,HYG,17.2402633,78.42938509999999,RGIA,,,Hyderabad,R.R. District,Telangana,IN,500409,,Shamshabad,,,,,,,,
428,KPB,50.33822199999999,30.8939274,KBP,,,Boryspil',,Kyivs'ka oblast,UA,08307,,,,,,,,,,
429,KTB,27.6980899,85.3592231,TIA,,Ring Rd,Kathmandu,Bagmati,Central Development Region,NP,44600,,Gaucharan,,,,,,,,
430,MTM,38.5002349,-107.8992134,Montrose Regional Airport,2100,Airport Rd,Montrose,Montrose County,CO,US,81401,,,,,,,,,,
431,NKI,39.0532746,-84.6630165,Cincinnati/Northern Kentucky International Airport,3087,Terminal Dr,Hebron,Boone County,KY,US,41048,,,,,,,,,,
432,WFB,28.7793906,-81.2356859,Orlando Sanford International Airport,1200,Red Cleveland Blvd,Sanford,Seminole County,FL,US,32773,,,,,,,,,,
433,DOV,32.1054203,34.7842653,Sde Dov Airport,,Sderot Levi Eshkol,Tel Aviv-Yafo,,Tel Aviv District,IL,,,,,,,,,,,
434,SUU,14.02,-60.993056,George F.L. Charles Airport,,Peninsular Rd,,,Castries,LC,,,,,,,,,,,
435,UAM,13.588225,144.9202077,,,,Yigo,,,GU,,,,,,,,,,,
436,IPL,32.835205,-115.5723977,Imperial County Airport,1099,Airport Rd,Imperial,Imperial County,CA,US,92251,,,,,,,,,,
437,ABR,45.4534583,-98.4177261,Aberdeen Regional Airport,4740,6th Ave SE,Aberdeen,Brown County,SD,US,57401,,,,,,,,,,
438,BIL,45.80350809999999,-108.5379142,Billings Logan International Airport,1901,Terminal Cir,Billings,Yellowstone County,MT,US,59105,,,,,,,,,,
439,BLI,48.7955792,-122.5330642,Bellingham International Airport,4255,Mitchell Way,Bellingham,Whatcom County,WA,US,98226,,,,,,,,,,
440,BRD,46.3930459,-94.1412635,Brainerd Lakes Regional Airport (KBRD),16384,Airport Rd,Brainerd,Crow Wing County,MN,US,56401,,,Oak Lawn Township,,,5,,,,
441,DLH,46.8387531,-92.1800102,Duluth International Airport - KDLH,4701,Grinden Dr,Duluth,St Louis County,MN,US,55811,,,,,,,,,,
442,EAU,44.8622211,-91.48222190000001,Chippewa Valley Regional Airport,3800,Starr Ave,Eau Claire,Chippewa County,WI,US,54703,,,,,,,,,,
443,FSD,43.5828065,-96.7402171,Sioux Falls Regional Airport,2801,N Jaycee Ln,Sioux Falls,Minnehaha County,SD,US,57104,,,,,,,,,,
444,GNV,29.6863121,-82.2766402,Gainesville Regional Airport,3880,NE 39th Ave,Gainesville,Alachua County,FL,US,32609,,,,,,A,,,,
445,GTF,47.4825016,-111.3566299,Great Falls International Airport,2800,Terminal Dr,Great Falls,Cascade County,MT,US,59404,,,,,,,,,,
446,HIB,47.3921561,-92.8421461,Range Regional Airport,11038,MN-37,Hibbing,St Louis County,MN,US,55746,,,,,,,,,,
447,IFP,35.1562931,-114.5584335,Laughlin/Bullhead International Airport,2550,Laughlin View Dr,Bullhead City,Mohave County,AZ,US,86429,,,,5891,,,,,,
448,INL,48.5663926,-93.397607,Falls International Airport,3214,2nd Ave E,International Falls,Koochiching County,MN,US,56649,,,Rainy Lake,8955,,,,,,
449,JLN,37.1577259,-94.50169369999999,Joplin Regional Airport,7331,MO-43,Joplin,Jasper County,MO,US,64801,,,,,,,,,,
450,LBE,40.2730644,-79.4082315,Arnold Palmer Regional Airport,148,Aviation Ln,Latrobe,Westmoreland County,PA,US,15650,,,Unity Township,5399,,# 103,,,,
451,LSE,43.8753591,-91.2634558,LSE,2850,Airport Dr,La Crosse,La Crosse County,WI,US,54603,,,,,,,,,,
452,LWS,46.3740418,-117.014737,Lewiston-Nez Perce County Regional Airport,406,Burrell Ave,Lewiston,Nez Perce County,ID,US,83501,,,,,,,,,,
453,MLB,28.1012659,-80.645078,Orlando Melbourne International Airport,1,Air Terminal Pkwy,Melbourne,Brevard County,FL,US,32901,,,,,,,,,,
454,MOT,48.25567119999999,-101.2882265,Minot Int'l Airport,305,Airport Rd,Minot,Ward County,ND,US,58703,,,,,,,,,,
455,RAP,44.0383798,-103.0605163,Rapid City Regional Airport,4550,Terminal Rd,Rapid City,Pennington County,SD,US,57703,,,,,,,,,,
456,SRQ,27.3951191,-82.55381969999999,Sarasota-Bradenton Int'l Airport,6000,Airport Cir,Sarasota,,FL,US,34243,,,,,,,,,,
457,STC,45.5479622,-94.06972329999999,St. Cloud Regional Airport,1550,45th Ave SE,St Cloud,Sherburne County,MN,US,56304,,,,9535,,,,,,
458,KEK,59.356529,-157.4714501,Ekwok Airport-Kek,1,Postal Way,Ekwok,Dillingham,AK,US,99580,,,,,,,,,,
459,NIB,63.01509089999999,-154.3683502,,,,Nikolai,Yukon-Koyukuk,AK,US,99691,,,,,,,,,,
460,TCT,62.9941551,-156.0294127,,,,Takotna,Yukon-Koyukuk,AK,US,99627,,,,,,,,,,
461,TLJ,62.89477929999999,-155.9783126,,,,,Yukon-Koyukuk,AK,US,99627,,,,,,,,,,
462,ABI,32.4118941,-99.6800464,Abilene Regional Airport,2933,Airport Blvd,Abilene,Taylor County,TX,US,79602,,,,,,,,,,
463,ATW,44.2602346,-88.5112347,ATW,W6390,Challenger Dr,Appleton,Outagamie County,WI,US,54914,,,Greenville,,,,,,,
464,AZA,33.307161,-111.668946,Phoenix-Mesa Gateway Airport,6033,S Sossaman Rd,Mesa,Maricopa County,AZ,US,85212,,,,,,,,,,
465,BOI,43.5658231,-116.2223159,Boise Airport,3201,W Airport Way,Boise,Ada County,ID,US,83705,,,,,,1000,,,,
466,COU,38.8155232,-92.2193772,Columbia Regional Airport,11300,S Airport Dr,Columbia,Boone County,MO,US,65201,,,Three Creeks Township,,,,,,,
467,CWA,44.784201,-89.67268,Central Wisconsin Airport,100,CWA Dr,Mosinee,Marathon County,WI,US,54455,,,,,,,,,,
468,ENV,40.7195085,-114.0330711,Wendover Airport,345,Airport Way,Wendover,Tooele County,UT,US,84083,,,,,,,,,,
469,GJT,39.1222307,-108.5291468,Grand Junction Regional Airport,2828,Walker Field Dr,Grand Junction,Mesa County,CO,US,81506,,,,,,,,,,
470,PUB,38.2859398,-104.4953346,Pueblo Memorial Airport,31201,Bryan Cir,Pueblo,Pueblo County,CO,US,81001,,,,,,,,,,
471,RDD,40.5058184,-122.2996775,Redding Airport,6751,Woodrum Cir,Redding,Shasta County,CA,US,96002,Pacheco,,,9323,,# 200,,,,
472,RDM,44.2532061,-121.1608592,Redmond Municipal Airport,,Dana Butler Ct,Redmond,Deschutes County,OR,US,97756,,,,,,,,,,
473,RKS,41.59746260000001,-109.0720642,Rock Springs/Southwest Wyoming Regional Airport - KRKS,382,WY-370,Rock Springs,Sweetwater County,WY,US,82901,,,,,,,,,,
474,SJT,31.35728569999999,-100.5028459,San Angelo Regional Airport,8618,Terminal Cir,San Angelo,Tom Green County,TX,US,76904,,,,,,,,,,
475,FAQ,-14.2154182,-169.4243224,FTI,,,Maia,Fituta,Manu'a,AS,,,,,,,,,,,
476,OFU,-14.1843507,-169.6700292,Ofu Airport,,,Ofu,Ofu,Manu'a,AS,,,,,,,,,,,
477,ROP,14.172008,145.243761,Rota International Airport,,,Sinapalu,,Rota Island,MP,96951,,,,,,,,,,
478,SPN,15.1197429,145.7282789,Saipan International Airport,,,I Fadang,,Saipan,MP,96950,,,,,,,,,,
479,TIQ,14.9992113,145.6248043,,,,,,Tinian,MP,96952,,,,,,,,,,
480,AKP,68.1331814,-151.7433356,Anaktuvuk Pass Airport,221,Airport St,Anaktuvuk Pass,North Slope,AK,US,99721,,,,,,,,,,
481,BTT,66.9192924,-151.5190664,Bettles Airport,1,front st,Bettles,Yukon-Koyukuk,AK,US,99726,,,,,,,,,,
482,ABY,31.53567109999999,-84.19390489999999,Southwest Georgia Regional Airport,3905,Newton Rd,Albany,Dougherty County,GA,US,31701,,,,,,100,,,,
483,SNA,33.6761901,-117.8674759,John Wayne Airport,18601,Airport Way,Santa Ana,Orange County,CA,US,92707,,,,,,,,,,
484,AHN,33.9519038,-83.32512969999999,Athens-Ben Epps Airport - AHN,1010,Ben Epps Dr,Athens,Clarke County,GA,US,30605,,,,,,,,,,
485,SBA,34.4271935,-119.8398835,Santa Barbara Airport,500,James Fowler Rd,Santa Barbara,Santa Barbara County,CA,US,93117,,,,,,,,,,
486,TCL,33.2210007,-87.60965809999999,Tuscaloosa National Airport,7601,R Cardinal Airport Rd,Tuscaloosa,Tuscaloosa County,AL,US,35401,,,,,,,,,,
487,VPS,30.49545509999999,-86.54984639999999,Destin-Fort Walton Beach Airport (VPS),,,Eglin AFB,Okaloosa County,FL,US,32542,,,,,,,,,,
488,EAT,47.398951,-120.206495,Pangborn Memorial Airport,1,Pangborn Drive,East Wenatchee,Douglas County,WA,US,98802,,,,,,,,,,
489,MSO,46.9185943,-114.0858752,Missoula International Airport,5225,U.S. Highway 10 W,Missoula,Missoula County,MT,US,59808,,,,,,,,,,
490,PUW,46.7441801,-117.1141262,Pullman-Moscow Regional Airport,,,Pullman,Whitman County,WA,US,99163,,,,,,,,,,
491,AVP,41.3377679,-75.7237811,Wilkes-Barre Scranton Int'l Airport,100,Terminal Rd,Avoca,,PA,US,18641,,,,,,,,,,
492,GTR,33.4516041,-88.587603,Golden Triangle Regional Airport,2080,Airport Rd,Columbus,Lowndes County,MS,US,39701,,,,,,,,,,
493,RDG,40.3795374,-75.9677499,Reading Regional Airport,2501,Bernville Rd,Reading,Berks County,PA,US,19605,,,Bern Township,,,,,,,
494,GRK,31.06138019999999,-97.8213287,Killeen-Fort Hood Regional Airport,8101,S Clear Creek Rd,Killeen,Bell County,TX,US,76549,,,,,,,,,,
495,SAV,32.1294267,-81.2018521,Savannah/Hilton Head International Airport,400,Airways Ave,Savannah,Chatham County,GA,US,31408,,,,,,,,,,
496,ADS,32.969972,-96.83646700000001,Addison Airport,16051,Addison Road,Addison,Dallas County,TX,US,75001,,,,,,220,,,,
497,GUS,40.656626,-86.1317335,,,,Bunker Hill,Miami County,IN,US,46914,,,Pipe Creek Township,,,,,,,
498,LZU,33.9754965,-83.9625236,Gwinnett County Airport (LZU),600,Briscoe Blvd,Lawrenceville,Gwinnett County,GA,US,30046,,,,4680,,,,,,
499,MGM,32.3050713,-86.3906353,Montgomery Airport.,4445,Selma Hwy,Montgomery,Montgomery County,AL,US,36108,,,,,,,,,,
500,ADK,51.8696448,-176.6454741,Adak Airport,100,Terminal Road,Adak,Aleutians West,AK,US,99546,,,,,,,,,,
501,ADQ,57.7543254,-152.516958,Kodiak Airport,1427,Airport Way,Kodiak,Kodiak Island,AK,US,99615,,,,,,,,,,
502,CDV,60.4934354,-145.4757287,Merle K (Mudhole) Smith Airport (CDV),,,Cordova,Valdez-Cordova,AK,US,99574,,,,,,,,,,
503,KTN,55.3554106,-131.7105604,Ketchikan International Airport,1000,Airport Terminal Building,Ketchikan,Ketchikan Gateway,AK,US,99901,,,,,,,,,,
504,PSG,56.8016796,-132.9482065,Petersburg James a Johnson,1450,Haugen Dr,Petersburg,Petersburg Borough,AK,US,99833,,,,,,,,,,
505,WRG,56.4850237,-132.3795998,Wrangell Airport,1,Airport Rd,Wrangell,City and Borough of Wrangell,AK,US,99929,,,,,,,,,,
506,YAK,59.50942140000001,-139.6689486,Yakutat Airport,1,Airport Rd,Yakutat,Yakutat,AK,US,99689,,,,,,,,,,
507,MOB,30.692512,-88.24549359999999,Mobile Regional Airport,8400,Airport Blvd,Mobile,Mobile County,AL,US,36608,Bates,,,,,,,,,
508,BIF,31.84983459999999,-106.3820969,,,,,El Paso County,TX,US,,,,,,,,,,,
509,HOP,36.6743803,-87.48919889999999,,,,Oak Grove,Christian County,KY,US,42262,,,,,,,,,,
510,ISP,40.7956189,-73.09880249999999,Long Island MacArthur Airport,100,Arrival Ave,Ronkonkoma,Suffolk County,NY,US,11779,,,Islip,,,,,,,
511,MGE,26.1780926,-98.24103629999999,McAllen International Airport,2500,S Bicentennial Blvd,McAllen,Hidalgo County,TX,US,78503,,,,,,,,,,
512,NQX,24.5770803,-81.7000637,,,,Naval Air Station Key West,Monroe County,FL,US,33040,,,,,,,,,,
513,OLM,46.97531970000001,-122.8971361,Olympia Regional Airport,7643,Old Hwy 99 SE,Tumwater,Thurston County,WA,US,98501,,,,,,,,,,
514,OTS,51.272925,-2.7841535,,,Cheddar Business Park,,Somerset,England,GB,BS27 3EB,,,,,,,Viking House,Cheddar,,
515,UUK,70.32953499999999,-149.612145,,,,,North Slope,AK,US,,,,,,,,,,,
516,ORV,66.8182058,-161.0321642,Robert Curtis Memorial Airport,9998,Fireweed Dr,Noorvik,Northwest Arctic,AK,US,99763,,,,,,,,,,
517,PHO,29.6515238,-95.623408,,13610,W Airport Blvd,Sugar Land,Fort Bend County,TX,US,77478,West Airport Commercial Subdivision,,,,,Suite 100,,,,
518,PKA,60.70674210000001,-161.7639957,,,Dump Rd,Napaskiak,Bethel,AK,US,99559,,,,,,,,,,
519,PTU,59.0163654,-161.8256287,,,,,Bethel,AK,US,,,,,,,,,,,
520,RDV,61.78543519999999,-157.3428734,,,,Red Devil,Bethel,AK,US,99656,,,,,,,,,,
521,SHG,66.8874477,-157.1599545,Shungnak Arprt,,,Shungnak,Northwest Arctic,AK,US,99773,,,,,,,,,,
522,SHH,66.2528851,-166.0808521,Shishmaref Airport,,Airport Rd,Shishmaref,Nome,AK,US,99772,,,,,,,,,,
523,SHX,62.6914246,-159.5697388,Shageluk Airport,,,Shageluk,Yukon-Koyukuk,AK,US,,,,,,,,,,,
524,SKK,64.3715934,-161.2241507,Shaktoolik Airport,,,Shaktoolik,Nome,AK,US,99771,,,,,,,,,,
525,SLQ,61.6997516,-157.1657104,Sleetmute Airport,,,Sleetmute,Bethel,AK,US,99668,,,,,,,,,,
526,SMK,63.4899584,-162.1103097,St. Michael Airport,,,St Michael,Nome,AK,US,99659,,,,,,,,,,
527,TLA,65.24036939999999,-166.3390909,Teller Airport,,,Teller,Nome,AK,US,99778,,,,,,,,,,
528,TLT,32.005532,34.8854112,Ben Gurion Airport,,,,,Center District,IL,7015001,,,,,,,,,,
529,WAA,49.9098283,-97.2365461,Winnipeg James Armstrong Richardson International Airport,2000,Wellington Ave,Winnipeg,,MB,CA,R3H 1C2,,,,,,,,,,
530,WBB,63.51465109999999,-162.2840758,Stebbins Airport,,,Stebbins,Nome,AK,US,99671,,,,,,,,,,
531,WLK,66.6009913,-159.99733,Selawik Airport,,,Selawik,Northwest Arctic,AK,US,99770,,,,,,,,,,
532,WMO,64.6862835,-163.4084558,White Mountain Airport,,,White Mountain,Nome,AK,US,99784,,,,,,,,,,
533,WNA,60.6933686,-161.9774935,Napakiak Airport-Wna,,,Napakiak,Bethel,AK,US,99634,,,,,,,,,,
534,WTK,67.563551,-162.9773711,Noatak Airport,,Government Airport Rd,Noatak,Northwest Arctic,AK,US,99761,,,,,,,,,,
535,ABL,67.1052387,-157.8549793,,,,Ambler,Northwest Arctic,AK,US,99786,,,,,,,,,,
536,BKC,65.98007,-161.1395116,Buckland Airport-Bvk,,,Buckland,Northwest Arctic,AK,US,,,,,,,,,,,
537,DRG,66.0692545,-162.766349,Deering Airport-Dee,,,Deering,Northwest Arctic,AK,US,,,,,,,,,,,
538,ELI,64.6182159,-162.2687165,Elim Airport-Eli,,,Elim,Nome,AK,US,99739,,,,,,,,,,
539,GLV,64.5480098,-163.0143476,Golovin Airport,,,Golovin,Nome,AK,US,99762,,,,,,,,,,
540,KGX,62.89574099999999,-160.067091,Grayling Airport,,3rd St,Grayling,Yukon-Koyukuk,AK,US,99590,,,,,,,,,,
541,KKA,64.9391445,-161.1548211,Koyuk Alfred Adams Airport,,,Koyuk,Nome,AK,US,99753,,,,,,,,,,
542,KTS,65.3321693,-166.4654197,Brevig Mission Airport,,,Brevig Mission,Nome,AK,US,99785,,,,,,,,,,
543,KVL,67.734231,-164.5582891,Kivalina Airport,,,Kivalina,Northwest Arctic,AK,US,99750,,,,,,,,,,
544,LUR,68.8739586,-166.1009763,,,,,North Slope,AK,US,99766,,,,,,,,,,
545,OBU,66.9127649,-156.9038228,Kobuk Airport,,,Kobuk,Northwest Arctic,AK,US,99751,,,,,,,,,,
546,TNC,29.9845295,-95.2985257,,5703,Will Clayton Pkwy,Humble,Harris County,TX,US,77338,,,,,,,,,,
547,CKU,60.5436437,-145.7259285,Cordova Municipal Airport (CKU),,Mile 13,Cordova,Valdez-Cordova,AK,US,99573,,,,,,,,,,
548,GKN,62.15370669999999,-145.4562754,,,,Gulkana,Valdez-Cordova,AK,US,,,,,,,,,,,
549,KQA,26.5895477,74.817039,METAR,,,,Ajmer,RJ,IN,305801,,,,,,,,,,
550,MTX,25.7778185,-100.1079853,Monterrey International Airport,Km 24,Carr. Miguel Alemán,Cd Apodaca,,N.L.,MX,66600,,,,,,,,,,
551,PPC,9.7456564,118.7504322,Puerto Princesa International Airport,,Rizal Ave,PPC,Palawan,MIMAROPA,PH,5300,,Barangay San Miguel,,,,,,,,
552,VDZ,61.133889,-146.248333,,,,Valdez,Valdez-Cordova,AK,US,99686,,,,,,,,,,
553,STT,18.3360608,-64.9722726,Cyril E. King Airport,,Airport Rd,Charlotte Amalie West,,St Thomas,VI,00802,,,,,,,,,,
554,SUX,42.4053135,-96.3837817,Sioux Gateway Airport,2403,Aviation Blvd,Sioux City,Woodbury County,IA,US,51111,,,,,,,,,,
555,CNO,33.9751601,-117.6352509,Chino Airport,7000,Merrill Ave,Chino,San Bernardino County,CA,US,91710,,,,,,,,,,
556,DPA,41.9067614,-88.25490789999999,DuPage Airport,2700,International Dr,West Chicago,Dupage County,IL,US,60185,,,,,,,,,,
557,NYL,32.6685512,-114.5991383,Yuma International Airport,2191,E 32nd St,Yuma,Yuma County,AZ,US,85365,,,,,,218,,,,
558,UIN,39.9368871,-91.1941325,Quincy Regional Airport,1645,IL-104,Quincy,Adams County,IL,US,62305,,,Gilmer Township,,,,,,,
559,GBH,68.47956549999999,-149.4915572,,,,,North Slope,AK,US,,,,,,,,,,,
560,AVL,35.4348962,-82.53785409999999,Asheville Regional Airport,61,Terminal Dr,Fletcher,Buncombe County,NC,US,28732,,,,,,1,,,,
561,MBS,43.5386272,-84.0821024,MBS International Airport,9200,Garfield Rd,Freeland,Saginaw County,MI,US,48623,,,,,,,,,,
562,MFD,40.8191147,-82.51386880000001,Mansfield Lahm Regional Airport,2000,Harrington Memorial Rd,Mansfield,Richland County,OH,US,44903,,,,8051,,,,,,
563,OEO,26.4779704,38.1169996,Prince Abdul Majeed Bin Abdulaziz Domestic Airport,,,Al Ula,Al Ala,Al Madinah Province,SA,,,,,43213,,,,,,
564,09A,32.1171247,-88.12395269999999,,,,,Choctaw County,AL,US,36904,,,,,,,,,,
565,AKK,56.9393804,-154.1817463,,,,Akhiok,Kodiak Island,AK,US,99615,,,,,,,,,,
566,DGB,26.1977449,85.9114568,Darbhanga Airport,,,Bihatwara,Darbhanga,BR,IN,846007,,Ranipur,,,,,,,,
567,KKB,33.8392276,131.0333373,Kitakyushu Airport,,,北九州市,,Fukuoka,JP,800-0306,,小倉南区,,,,,6,,,
568,KLN,57.53571399999999,-153.9787422,Larsen Bay Airport-2A3,,Airport Rd,Larsen Bay,Kodiak Island,AK,US,99624,,,,,,,,,,
569,KMY,25.7958723,-80.2870509,Miami International Airport,2100,NW 42nd Ave,Miami,Miami-Dade County,FL,US,33126,,,,,,,,,,
570,KOZ,57.94191540000001,-152.4737182,,,,Ouzinkie,Kodiak Island,AK,US,99644,,,,,,,,,,
571,KPY,47.9075768,-122.2808529,Paine Field,3220,100th St SW,Everett,Snohomish County,WA,US,98204,,,,,,,,,,
572,KWP,29.2404414,47.9710458,Kuwait International Airport,,,,,,KW,,,,,,,,,,,
573,KZB,55.6080657,49.28105069999999,Kazan Airport,1,Ulitsa Aeroport,Kazan,Laishevsky District,Respublika Tatarstan,RU,420017,,,,,,,,,,
574,NNK,58.7349931,-157.0220392,Aeroportul Naknek,,,Naknek,Bristol Bay,AK,US,99633,,,,,,,,,,
575,OLH,57.2180931,-153.2709332,Old Harbor Airport-6r7,,Elderberry St,Old Harbor,Kodiak Island,AK,US,99643,,,,,,,,,,
576,ORI,57.88465050000001,-152.8502607,,,,Port Lions,Kodiak Island,AK,US,99550,,,,,,,,,,
577,SYB,-33.9399228,151.1752764,Sydney Airport,,,Sydney,,NSW,AU,2020,,,,,,,,,,
578,UGI,28.5561624,77.0999578,Indira Gandhi International Airport,,,New Delhi,,DL,IN,110037,,,,,,,,,,
579,AKI,60.90147760000001,-161.2333514,Akiak Airport-Aki,,,Akiak,Bethel,AK,US,99552,,,,,,,,,,
580,ANV,62.64910150000001,-160.1907643,Flughafen Anvik,,,Anvik,Yukon-Koyukuk,AK,US,99558,,,,,,,,,,
581,CHU,61.5834917,-159.2379723,Chuathbaluk Airport-9A3,,,Aniak,Bethel,AK,US,99557,,,,,,,,,,
582,CKD,61.8677963,-158.1343363,,,,Crooked Creek,Bethel,AK,US,99575,,,,,,,,,,
583,CYT,60.08038749999999,-142.4862305,,,,,Yakutat,AK,US,,,,,,,,,,,
584,FVQ,37.4201674,-5.89305,Seville Airport,Km. 532,A-4,Sevilla,Sevilla,AL,ES,41020,,,,,,,,,,
585,GNU,29.6863121,-82.2766402,Gainesville Regional Airport,3880,NE 39th Ave,Gainesville,Alachua County,FL,US,32609,,,,,,A,,,,
586,HCR,40.4816774,-111.4239819,Heber Valley Airport,630,Airport Rd,Heber City,Wasatch County,UT,US,84032,,,,,,,,,,
587,JZE,32.6990607,-80.005979,,2744,Fort Trenholm Rd,Johns Island,Charleston County,SC,US,29455,,,,,,,,,,
588,MOS,64.61749999999999,-162.2605556,Moses Point Airport,,Iditarod trail,Elim,Nome,AK,US,99739,,,,,,,,,,
589,MYU,60.3865308,-166.1983093,,,,Mekoryuk,Bethel,AK,US,99630,,,,,,,,,,
590,PAQ,61.60064550000001,-149.0910745,Palmer Municipal Airport-PAQ,901,S Airport Rd,Palmer,Matanuska-Susitna,AK,US,99645,,,,,,,,,,
591,ZNC,-6.2185336,39.221379,Zanzibar Airport,,,Zanzibar,Magharibi,Mjini Magharibi Region,TZ,,,,,,Zanzibar Town,,,,,
592,PCA,58.9064965,-157.7140163,,,,Portage Creek,Dillingham,AK,US,99576,,,,,,,,,,
593,TKA,62.3218337,-150.0936698,Talkeetna Airport-TKA,14373,E 2nd St,Talkeetna,Matanuska-Susitna,AK,US,99676,,,,,,,,,,
594,GST,58.422469,-135.7030421,Gustavus Airport-Gst,1,Airport Way,Gustavus,Hoonah-Angoon,AK,US,99826,,,,,,,,,,
595,HNS,59.24733550000001,-135.5294009,Haines Airport,720,Main St,Haines,Haines,AK,US,99827,,,,,,,,,,
596,PBK,26.6857475,-80.0928165,Palm Beach International Airport,1000,James L Turnage Blvd,West Palm Beach,Palm Beach County,FL,US,33415,,,,,,,,,,
597,TKE,33.1775756,-96.5925224,McKinney National Airport,1500,Industrial Blvd,McKinney,Collin County,TX,US,75069,,,,,,201,,,,
598,NTD,34.1126976,-119.1055274,,311,Main Rd,NAS Point Mugu,Ventura County,CA,US,93042,,,,,,,,,,
599,SDP,55.3178834,-160.5228473,Sand Point Airport,268,Airport Rd,Sand Point,Aleutians East,AK,US,99661,,,,,,,,,,
600,CKX,64.0664338,-141.9510412,Chicken Airport,,Airport Rd,Chicken,Southeast Fairbanks,AK,US,99780,,,,,,,,,,
601,CZN,62.06667419999999,-142.042194,,,,Chisana,Valdez-Cordova,AK,US,,,,,,,,,,,
602,HKB,22.308047,113.9184808,Hong Kong International Airport,1,Sky Plaza Rd,,,New Territories,HK,,Chek Lap Kok,,,,,,,,,
603,TKJ,63.30265199999999,-142.9996265,,,,Tok,Southeast Fairbanks,AK,US,99780,,,,,,,,,,
604,ILI,59.7557182,-154.9075163,Iliamna Airport-Ili,,,Iliamna,Lake and Peninsula,AK,US,99606,,,,,,,,,,
605,KNK,32.8701459,-117.1441227,,,,San Diego,San Diego County,CA,US,,Miramar,,,,,,,,,
606,NNL,14.5122739,121.016508,NAIA,,,Pasay,,NCR,PH,1300,,,,,,,,,,
607,PDB,59.7971981,-154.1305668,,,,Pedro Bay,Lake and Peninsula,AK,US,99647,,,,,,,,,,
608,QQB,51.531427,-0.126133,,,Euston Rd,,Greater London,England,GB,N1C 4QP,Kings Cross,,,,St Pancras International,,,London,,
609,WWA,47.97433179999999,-84.7816678,Wawa Municipal Airport (YXZ),,Highway 101,Wawa,Algoma District,ON,CA,P0S 1K0,,,Wawa,,,,,,,
610,KKU,2.7455962,101.7071602,Kuala Lumpur Int'l Airport,,,Sepang,,Selangor,MY,64000,,,,,,,,,,
611,FOK,40.8435248,-72.64154959999999,Francis S. Gabreski Airport,,Sheldon Way,Westhampton Beach,Suffolk County,NY,US,11978,,,Southampton,,,,,,,
612,CXO,30.34969449999999,-95.4139893,Conroe-North Houston Regional Airport,10260,Carl Pickering Memorial Dr,Conroe,Montgomery County,TX,US,77303,,,,,,,,,,
613,VNY,34.2096399,-118.4896448,Van Nuys Airport,16461,Sherman Way,Los Angeles,Los Angeles County,CA,US,91406,Van Nuys,,,,,,,,,
614,BTM,45.9551935,-112.5021977,Bert Mooney Airport,101,Airport Rd,Butte,Silver Bow County,MT,US,59701,,,,,,,,,,
615,OAJ,34.8291316,-77.60688429999999,Albert J Ellis Airport,264,Albert J. Ellis Airport Rd,Richlands,Onslow County,NC,US,28574,,,Richlands,,,,,,,
616,SLN,38.7787031,-97.6395955,Salina Regional Airport (KSLN),3237,Arnold Ave,Salina,Saline County,KS,US,67401,,,,,,,,,,
617,APC,38.2172561,-122.2730219,Napa County Airport,2030,Airport Rd,Napa,Napa County,CA,US,94558,,,,6208,,,,,,
618,ASE,39.2196304,-106.8643335,Aspen Pitkin County Airport,233,Airport Rd,Aspen,Pitkin County,CO,US,81611,,,,,,,,,,
619,COE,47.7676076,-116.8214443,Coeur d'Alene Airport,10375,N Sensor Ave,Hayden,Kootenai County,ID,US,83835,,,,,,,,,,
620,GYR,33.4245691,-112.3729813,Phoenix Goodyear Airport,1658,S Litchfield Rd,Goodyear,Maricopa County,AZ,US,85338,,,,1509,,,,,,
621,NUQ,37.4094963,-122.0510589,Moffett Federal Airfield,,,Mountain View,Santa Clara County,CA,US,94043,,,,,,,,,,
622,PGO,36.9244374,-111.451092,Page Municipal Airport,238,N 10th Ave,Page,Coconino County,AZ,US,86040,,,,,,,,,,
623,STS,38.5079542,-122.8132999,Charles M. Schulz–Sonoma County Airport,2200,Airport Blvd,Santa Rosa,Sonoma County,CA,US,95403,,,,,,,,,,
624,TWF,42.4833496,-114.4847165,Magic Valley Regional Airport,492,Airport Loop,Twin Falls,Twin Falls County,ID,US,83301,,,,,,,,,,
625,VHN,31.0610866,-104.7863846,,,,,Culberson County,TX,US,79855,,,,,,,,,,
626,C01,39.6564167,-75.0155742,Southern Cross Airport-C01,256,S Tuckahoe Rd,Monroe Township,Gloucester County,NJ,US,08094,Williamstown,,,3562,,,,,,
627,CGS,38.9795446,-76.9227324,College Park Airport - CGS,1909,Corporal Frank Scott Dr,College Park,Prince George's County,MD,US,20740,,,"21, Berwyn",2000,,,,,,
628,EGV,45.9340987,-89.26183420000001,EGV,1311,Airport Rd,Eagle River,Vilas County,WI,US,54521,,,,,,,,,,
629,FDK,39.4161991,-77.3792758,Frederick Municipal Airport-FDK,310,Aviation Way,Frederick,Frederick County,MD,US,21701,,,"2, Frederick",,,,,,,
630,HVN,41.2678919,-72.8868727,Tweed New Haven Airport,155,Burr St,New Haven,New Haven County,CT,US,06512,,,,,,,,,,
631,ISW,44.3619607,-89.8336853,South Wood County Airport,3620,1st St S,Wisconsin Rapids,Wood County,WI,US,54494,,,,5770,,,,,,
632,JRA,40.754804,-74.0070478,West 30th St Heliport,,,New York,New York County,NY,US,10011,,Manhattan,,,,,,,,
633,LEB,43.6249449,-72.3086409,Lebanon Municipal Airport,5,Airpark Rd,Lebanon,Grafton County,NH,US,03784,West Lebanon,,,,,,,,,
634,MRY,36.5871457,-121.8462322,Monterey Regional Airport,200,Fred Kane Dr,Monterey,Monterey County,CA,US,93940,,,,,,,,,,
635,N4Y,33.4372686,-112.0077881,Phoenix Sky Harbor International Airport,3400,E Sky Harbor Blvd,Phoenix,Maricopa County,AZ,US,85034,Central City,,,,,,,,,
636,OXR,34.1985056,-119.2065106,Oxnard Airport,2889,W 5th St,Oxnard,Ventura County,CA,US,93030,,,,,,,,,,
637,PGA,36.9244374,-111.451092,Page Municipal Airport,238,N 10th Ave,Page,Coconino County,AZ,US,86040,,,,,,,,,,
638,PWK,42.1170686,-87.9011312,Chicago Executive Airport-PWK,1020,Plant Rd,Wheeling,Cook County,IL,US,60090,,,Wheeling Township,6312,,,,,,
639,RHI,45.6262146,-89.463867,Rhinelander–Oneida County Airport,3375,Airport Rd,Rhinelander,Oneida County,WI,US,54501,,,,,,,,,,
640,ROG,36.372223,-94.10694099999999,Rogers Municipal Airport,3,W Airport Dr,Rogers,Benton County,AR,US,72756,,,Township 6,,,,,,,
641,SBM,43.7644208,-87.85128879999999,SBM,,N6187 Resource Dr,Sheboygan Falls,Sheboygan County,WI,US,53085,,,Sheboygan Falls,2348,,,,,,
642,SCF,33.620429,-111.9152945,Scottsdale Airport,15000,N Airport Dr,Scottsdale,Maricopa County,AZ,US,85260,North Scottsdale,,,4813,,,,,,
643,SGR,29.6272669,-95.65288969999999,Sugar Land Regional Airport,12888,Hwy 6,Sugar Land,Fort Bend County,TX,US,77498,,,,,,,,,,
644,TEX,37.9545624,-107.9019696,KTEX,1500,Last Dollar Rd,Telluride,San Miguel County,CO,US,81435,,,,9158,,,,,,
645,UGN,42.416305,-87.868192,Waukegan National Airport,2601,W Plane Rest Dr,Waukegan,Lake County,IL,US,60087,,,Benton Township,1448,,,,,,
646,WKV,64.132628,-21.949453,,,,RVK,,,IS,101,,Miðborg,,,Reykjavíkurflugvöllur,,,,,
647,A63,53.86794339999999,-1.6615306,Leeds Bradford Airport,,Whitehouse Ln,Yeadon,West Yorkshire,England,GB,LS19 7TU,,,,,,,,Leeds,,
648,AK7,64.198047,-147.927905,,,,,Denali,AK,US,99760,,,,,,,,,,
649,BTI,70.135592,-143.5897179,Barter Island Long Range Radar Service Airport,,,Kaktovik,North Slope,AK,US,99747,,,,,,,,,,
650,DCK,66.94253259999999,-156.8954912,Dahl Creek Airport-DCK,,,Kobuk,Northwest Arctic,AK,US,,,,,,,,,,,
651,EAA,43.9859195,-88.5752792,Pioneer Airport,1603,Goyke Ave,Oshkosh,Winnebago County,WI,US,54902,,,,,,,,,,
652,HSL,12.9503112,77.6665904,Hindustan Aeronautics Limited Aerospace Museum,,HAL Old Airport Rd,Bengaluru,Bangalore Urban,KA,IN,560017,,HAL,,,,,,,,
653,RLU,35.88007899999999,-78.7879963,Raleigh-Durham International Airport,2400,John Brantley Blvd,Morrisville,Wake County,NC,US,27560,,,Cedar Fork,,,,,,,
654,UTO,12.6745261,100.9980048,U-Tapao Airport,,ถนนสุขุมวิท,ต. พลา,อ. บ้านฉาง,จ.ระยอง,TH,21130,,,,,,,หมู่ที่ 2,,,
655,WCR,67.5021441,-148.4943661,,,,,Yukon-Koyukuk,AK,US,99701,,,,,,,,,,
656,ZXF,52.37331529999999,13.5064497,Berlin Schönefeld Airport,,,Schönefeld,,BB,DE,12529,,,Dahme-Spreewald,,,,,,,
657,HDN,35.5493932,139.7798386,Haneda Airport,,,Ota City,,Tōkyō-to,JP,144-0041,,Hanedakūkō,,,,,,,,
658,IDA,43.5152294,-112.0678843,Idaho Falls Regional Airport,2140,N Skyline Dr,Idaho Falls,Bonneville County,ID,US,83402,,,,,,,,,,
659,PVU,40.2180508,-111.7222357,Provo Airport,3421,Mike Jense Pkwy,Provo,Utah County,UT,US,84601,,,,,,,,,,
660,SWO,36.1577993,-97.08390779999999,Stillwater Regional Airport,2020-1,W Airport Rd,Stillwater,Payne County,OK,US,74075,,,,,,,,,,
661,LCH,30.1229972,-93.2211183,Lake Charles Regional Airport,500,Airport Blvd,Lake Charles,Calcasieu Parish,LA,US,70607,,,7,,,,,,,
662,MHK,39.1371223,-96.6699273,Manhattan Regional Airport,5500,Skyway Dr,Manhattan,Riley County,KS,US,66503,,,,,,120,,,,
663,PIB,31.468239,-89.335421,,1002,Terminal Dr,Moselle,Jones County,MS,US,39459,,,,,,,,,,
664,JAC,43.6084108,-110.7366517,Jackson Hole Airport,1250,E Airport Rd,Jackson,Teton County,WY,US,83001,,,,,,,,,,
665,GDV,47.1362228,-104.8084793,Dawson Community Airport,400,Airport Rd,Glendive,Dawson County,MT,US,59330,,,,,,,,,,
666,SMN,45.1235656,-113.8814234,Lemhi County Airport,,Airport Rd,Salmon,Lemhi County,ID,US,83467,,,,,,,,,,
667,CDR,42.8289275,-103.0968004,Chadron Municipal Airport,90,Airport Rd,Chadron,Dawes County,NE,US,69337,,,,,,,,,,
668,CEZ,37.30266830000001,-108.6280522,Cortez Municipal Airport,,Airport Rd,Cortez,Montezuma County,CO,US,81321,,,,,,,,,,
669,SVC,32.63238260000001,-108.1542125,Grant County Airport,188,Airport Rd,Hurley,Grant County,NM,US,88043,,,,,,,,,,
670,KXA,32.8998091,-97.0403352,DFW International Airport,2400,Aviation Dr,DFW Airport,,TX,US,75261,,,,,,,,,,
671,WMK,2.7455962,101.7071602,Kuala Lumpur Int'l Airport,,,Sepang,,Selangor,MY,64000,,,,,,,,,,
672,ZXM,18.0418698,-63.1130821,Princess Juliana International Airport,,Airport Rd,Simpson Bay,,Sint Maarten,SX,,,,,,,,,,,
673,AET,66.5496076,-152.629292,Allakaket Airport-6A8,,,Allakaket,Yukon-Koyukuk,AK,US,99720,,,,,,,,,,
674,FBK,64.8415654,-147.6101077,Fort Wainwright,,,Fairbanks,Fairbanks North Star,AK,US,99703,Fort Wainwright,,,,,,,,,
675,KBC,66.2775581,-145.8164124,Birch Creek Airport,,,,Yukon-Koyukuk,AK,US,99730,,,,,,,,,,
676,MHM,63.8832707,-152.316682,Minchumina Airport-MHM,,,Lake Minchumina,Yukon-Koyukuk,AK,US,99757,,,,,,,,,,
677,NUL,64.72862649999999,-158.0771672,Nulato Airport-Nul,,,Nulato,Yukon-Koyukuk,AK,US,99765,,,,,,,,,,
678,RBY,34.0361152,-6.7480954,RBA,,,Salé,Salé,Rabat-Salé-Kénitra,MA,,,,,,,,,,,
679,PVY,31.1443439,121.808273,Shanghai Pudong International Airport,,S1 Yingbin Expy,,,Shanghai Shi,CN,,,Pudong Xinqu,,,,,,,,
680,LKK,58.96567870000001,-155.1101351,,,,,Lake and Peninsula,AK,US,99613,,,,,,,,,,
681,SNP,57.1577448,-170.229891,St. Paul Island Airport,,,St Paul,Aleutians West,AK,US,99660,,,,,,,,,,
682,STG,51.8860181,0.2388661,London Stansted Airport,,Bassingbourn Rd,,Essex,England,GB,CM24 1QW,,,,,,,,Stansted,,
683,CDL,41.9388735,-72.68603139999999,Bradley International Airport,,Schoephoester Rd,Windsor Locks,Hartford County,CT,US,06096,,,,,,,,,,
684,FWL,40.9828674,-85.18844229999999,Fort Wayne Int'l Airport,3801,W Ferguson Rd,Fort Wayne,Allen County,IN,US,46809,,,Pleasant Township,,,,,,,
685,PIZ,69.7324806,-163.0151611,Point Lay LRRS Airport,,,Point Lay,North Slope,AK,US,99759,,,,,,,,,,
686,ZXN,22.636828,113.814606,Shenzhen Bao'an International Airport,,,Shenzhen Shi,,Guangdong Sheng,CN,,,Baoan Qu,,,,,,,,
687,BJI,47.5092442,-94.9329041,Bemidji Regional Airport,3824,Moberg Dr NW,Bemidji,Beltrami County,MN,US,56601,,,,,,,,,,
688,DBQ,42.3972121,-90.7057047,Dubuque Regional Airport,10965,Aviation Dr,Dubuque,Dubuque County,IA,US,52003,,,Table Mound,,,,,,,
689,FNL,-8.8480556,13.2352778,4 de Fevereiro International Airport,,,Luanda,Maianga,Luanda,AO,,,Maianga,,,,,,,,
690,MCN,32.7014571,-83.65010079999999,Middle Georgia Regional Airport,1000,Terminal Dr,Macon,Bibb County,GA,US,31297,,,,,,,,,,
691,ATK,70.4674655,-157.4320104,Atqasuk Edward Burnell Sr. Memorial Airport,,,Barrow,North Slope,AK,US,99723,,,,,,,,,,
692,NUI,70.2105603,-151.0045729,Nuiqsut Airport-AQT,,1st St,Nuiqsut,North Slope,AK,US,99789,,,,,,,,,,
693,PIH,42.9055766,-112.5886283,Pocatello Regional Airport,1950,Airport Way,Pocatello,Power County,ID,US,83204,,,,,,,,,,
694,SUO,43.8760957,-121.4550213,Sunriver Airport,,,Sunriver,Deschutes County,OR,US,97707,,,,,,,,,,
695,JHM,20.9621391,-156.6754608,Kapalua Airport,4050,Honoapiilani Hwy,Lahaina,Maui County,HI,US,96761,,,,9378,,,,,,
696,LNY,20.7905864,-156.9498596,Lānaʻi Airport,,Lanai Ave,Lanai City,Maui County,HI,US,96763,,,,,,,,,,
697,MKK,21.1535674,-157.0963276,Molokai Airport,,,Ho'olehua,Maui County,HI,US,96729,,,,,,,,,,
698,AGC,40.3523988,-79.92704619999999,Allegheny County Airport-Agc,12,Allegheny County Airport,West Mifflin,Allegheny County,PA,US,15122,,,,2605,,,,,,
699,ART,43.9956627,-76.022365,Watertown International Airport,22529,Airport Dr,Dexter,Jefferson County,NY,US,13634,,,Hounsfield,,,,,,,
700,AUG,44.31882179999999,-69.7955396,Augusta State Airport,75,Airport Rd,Augusta,Kennebec County,ME,US,04330,,,,,,,,,,
701,BID,41.169273,-71.5801455,Block Island State Airport-Bid,1,Center Rd,New Shoreham,Washington County,RI,US,02807,,New Shoreham,,,,,,,,
702,BVY,42.5844192,-70.91528079999999,Beverly Airport,46,L P Henderson Rd,Beverly,Essex County,MA,US,01915,,,,,,,,,,
703,CEU,34.670951,-82.8844062,Oconee County Regional Airport-CEU,365,Airport Rd,Seneca,Oconee County,SC,US,29678,,,,2001,,,,,,
704,CGF,41.566839,-81.4893158,Cuyahoga County Airport,26300,Curtiss Wright Pkwy,Cleveland,,OH,US,44143,,,,,,,,,,
705,DXR,41.3715755,-73.480103,Danbury Municipal Airport,1,Wibling Rd,Danbury,Fairfield County,CT,US,06810,,,,7454,,,,,,
706,EEN,42.9064535,-72.2726019,Keene Dillant-Hopkins Airport,80,Airport Rd,Swanzey,Cheshire County,NH,US,03446,,,,,,,,,,
707,FRY,50.0379326,8.562151799999999,Frankfurt Airport,,,Frankfurt am Main,DA,HE,DE,60547,,,,,,,,,,
708,GFL,43.307536,-73.624181,,2,Shermantown Rd,Glens Falls,Warren County,NY,US,12801,,,,3823,,,,,,
709,LEW,44.048795,-70.287055,Auburn-Lewiston Airport,80,Airport Dr,Auburn,Androscoggin County,ME,US,04210,,,,,,,,,,
710,LKP,44.26640700000001,-73.9648,Lake Placid Airport,27,Airport Ln,Lake Placid,Essex County,NY,US,12946,,,North Elba,,,,,,,
711,MQI,35.9178849,-75.69996359999999,Dare County Regional Airport (MQI),410,Airport Rd,Manteo,Dare County,NC,US,27954,,,Nags Head,,,,,,,
712,NY7,40.6413111,-73.77813909999999,JFK International Airport,,,,Queens County,NY,US,11430,,Queens,,,,,,,,
713,NY9,40.6413111,-73.77813909999999,JFK International Airport,,,,Queens County,NY,US,11430,,Queens,,,,,,,,
714,OWD,42.1919985,-71.17662179999999,Norwood Memorial Airport,125,Access Rd,Norwood,Norfolk County,MA,US,02062,,,,,,,,,,
715,PSF,42.4255587,-73.2915823,Pittsfield Municipal Airport,832,Tamarack Rd,Pittsfield,Berkshire County,MA,US,01201,,,,8018,,,,,,
716,PYM,41.90873089999999,-70.7313188,Plymouth Municipal Airport,246,S Meadow Rd,Plymouth,Plymouth County,MA,US,02360,,,,,,,,,,
717,RKD,44.061802,-69.09430499999999,Knox County Regional Airport,19,Airport Rd,Owls Head,Knox County,ME,US,04854,,,,,,,,,,
718,SLK,44.3804755,-74.20342529999999,Adirondack Regional Airport,96,Airport Rd,Saranac Lake,Franklin County,NY,US,12983,,,Harrietstown,5816,,,,,,
719,UBF,13.7365538,-60.9501066,,,,,,Vieux Fort,LC,,,,,,,,,,,
720,VWK,39.9841096,-82.8713834,,379,N Hamilton Rd,Columbus,Franklin County,OH,US,43213,,,,1313,,,,,,
721,WSG,38.8575466,-77.04434789999999,Aircraft Noise Complaint Center,1,Aviation Cir,Arlington,Arlington County,VA,US,22202,,,,,,,,,,
722,WST,41.3488793,-71.8046833,Westerly State Airport,56,Airport Rd,Westerly,Washington County,RI,US,02891,Misquamicut,,Westerly,,,,,,,
723,WVL,44.533515,-69.680069,LaFleur Airport,2,Lafleur Rd,Waterville,Kennebec County,ME,US,04901,,,,,,,,,,
724,APA,39.57510329999999,-104.8451384,Centennial Airport,7800,S Peoria St,Centennial,,CO,US,80112,,,,,,,,,,
725,CEC,41.7747891,-124.2371456,Del Norte County Regional Airport,1650,Dale Rupert Rd,,Del Norte County,CA,US,95531,,,,,,,,,,
726,CYS,41.1531677,-104.8110275,Cheyenne Regional Airport (KCYS),4020,Airport Pkwy W,Cheyenne,Laramie County,WY,US,82001,,,,,,,,,,
727,DSI,30.3966602,-86.47098,Destin Executive Airport (DTS),1001,Airport Rd,Destin,Okaloosa County,FL,US,32541,,,,,,,,,,
728,DWH,30.0701768,-95.5511629,David Wayne Hooks Memorial Airport,20803,Stuebner Airline Rd,Spring,Harris County,TX,US,77379,,,,,,,,,,
729,ECG,36.2575096,-76.1754727,Elizabeth City Regional Airport,1028,Consolidated Rd,Elizabeth City,Pasquotank County,NC,US,27909,,,Nixonton,7835,,,,,,
730,FYV,36.0034182,-94.1719488,Drake Field,4500,S School Ave,Fayetteville,Washington County,AR,US,72701,,,,,,,,,,
731,HUM,29.5663964,-90.65749369999999,Houma–Terrebonne Airport,10264,E Main St,Houma,Terrebonne Parish,LA,US,70363,,,8,,,,,,,
732,JXN,42.2588719,-84.4603964,Jackson County Airport,3606,Wildwood Ave,Jackson,Jackson County,MI,US,49202,,,,1864,,,,,,
733,MNZ,38.7242662,-77.51565029999999,Manassas Regional Airport,10600,Harry J Parrish Blvd,Manassas,,VA,US,20110,,,,,,,,,,
734,PAH,37.0612439,-88.7675112,Barkley Regional Airport-Pah,2901,Fisher Rd,West Paducah,McCracken County,KY,US,42086,,,,9736,,,,,,
735,PRB,35.6720769,-120.637983,Paso Robles Municipal Airport,4912,Wing Way,Paso Robles,San Luis Obispo County,CA,US,93446,,,,,,,,,,
736,T2N,32.7311885,-117.2033482,,,,San Diego,San Diego County,CA,US,92101,Point Loma,,,,,,,,Terminal 2 Rental Car Shuttle,
737,TMB,25.649151,-80.4291937,Miami Executive Airport,12800,SW 145th Ave,Miami,Miami-Dade County,FL,US,33186,,,West End,5339,,,,,,
738,VCT,28.852345,-96.9199383,Victoria Regional Airport,609,Foster Field Dr,Victoria,Victoria County,TX,US,77904,,,,,,,,,,
739,APN,45.07031629999999,-83.5665893,Alpena County Regional Airport - KAPN,1617,Airport Rd,Alpena,Alpena County,MI,US,49707,,,Wilson Township,,,,,,,
740,CWF,30.2163924,-93.1505869,Chennault International Airport,3650,Sen J Bennett Johnston Ave,Lake Charles,Calcasieu Parish,LA,US,70615,,,Parish Governing Authority District 4,6800,,,,,,
741,MIE,40.240395,-85.393616,Delaware County Airport,311,W Carl Simmons Dr,Muncie,Delaware County,IN,US,47303,,,Hamilton Township,9075,,,,,,
742,MTN,39.32833530000001,-76.4236353,Martin State Airport,701,Wilson Point Rd,Middle River,Baltimore County,MD,US,21220,,,District 15,,,,,,,
743,NKX,39.2991181,-94.7107786,Kansas City International Airport,,,KCMO,Platte County,MO,US,64153,,,,,,,,,,
744,RCA,44.1391018,-103.1017325,Ellsworth TACAN RCA 025X,,,Box Elder,Pennington County,SD,US,57719,,,Central Pennington,,,,,,,
745,SBP,35.2374865,-120.6409032,San Luis Obispo County Regional Airport,975,Airport Dr,San Luis Obispo,San Luis Obispo County,CA,US,93401,,,,8368,,,,,,
746,TCM,47.1342432,-122.4857321,,,,Joint Base Lewis-McChord,Pierce County,WA,US,,McChord Air Force Base,,,,,,,,,
747,TVC,44.7369137,-85.5796208,Cherry Capital Airport,727,Fly Don't Dr,Traverse City,Grand Traverse County,MI,US,49686,,,,,,,,,,
748,YUM,32.6685512,-114.5991383,Yuma International Airport,2191,E 32nd St,Yuma,Yuma County,AZ,US,85365,,,,,,218,,,,
749,FFO,41.7998868,12.2462384,Leonardo da Vinci International Airport,,Via dell' Aeroporto di Fiumicino,Fiumicino,RM,Lazio,IT,00054,,,Fiumicino,,,,,,,
750,RME,43.2303415,-75.4052573,Griffiss International Airport-RME,660,Hangar Rd,Rome,Oneida County,NY,US,13441,,,,,,,,,,
751,LFT,30.205482,-91.9894188,Lafayette Regional Airport,200,Terminal Dr,Lafayette,Lafayette Parish,LA,US,70508,,,Parish Governing Authority District G,,,,,,,
752,ERI,42.0839144,-80.17215340000001,Erie International Airport,4411,W 12th St,Erie,Erie County,PA,US,16505,,,Millcreek Township,,,,,,,
753,HMN,37.5139029,-122.4951258,Half Moon Bay Airport,9850,Cabrillo Hwy,Half Moon Bay,San Mateo County,CA,US,94019,,,,5208,,,,,,
754,ACV,40.9709197,-124.1065825,California Redwood Coast-Humboldt County Airport,3561,Boeing Ave,McKinleyville,Humboldt County,CA,US,95519,,,,9358,,,,,,
755,BQK,31.2548331,-81.46691109999999,Brunswick Golden Isles Airport,295,Aviation Pkwy,Brunswick,Glynn County,GA,US,31525,,,,7801,,,,,,
756,DET,42.4090864,-83.00382359999999,Coleman A. Young International Airport,11499,Conner St,Detroit,Wayne County,MI,US,48213,,,,,,,,,,
757,FMN,36.7386433,-108.2273,Four Corners Regional Airport,1300 W,W Navajo St,Farmington,San Juan County,NM,US,87401,,,,,,,,,,
758,FTY,33.7762621,-84.52209870000002,Fulton County-Brown Field-Fty,3952,Aviation Cir NW,Atlanta,Fulton County,GA,US,30336,,,,,,,,,,
759,IPT,41.245182,-76.91881000000001,Williamsport Regional Airport,724,Airport Rd,Montoursville,Lycoming County,PA,US,17754,,,,,,,,,,
760,OLV,34.9790423,-89.7888265,Olive Branch Airport,,,Olive Branch,Desoto County,MS,US,38654,,,,,,,,,,
761,VLD,30.7892346,-83.27882269999999,Valdosta Regional Airport,1750,Airport Rd,Valdosta,Lowndes County,GA,US,31601,,,,,,,,,,
762,BJC,39.90963780000001,-105.108089,Rocky Mountain Metropolitan Airport,11755,Airport Way,Broomfield,Jefferson County,CO,US,80021,,,,,,,,,,
763,LWB,37.856284,-80.404748,Greenbrier Valley Airport,558,Airport Rd,Lewisburg,Greenbrier County,WV,US,24901,,,Central,,,,,,,
764,VNC,27.0732113,-82.4405867,Venice Municipal Airport,150,Airport Ave E,Venice,Sarasota County,FL,US,34285,,,,,,,,,,
765,HGZ,9.517999900000001,44.0836605,Hargeisa Egal International Airport,,,Hargeysa,Hargeysa,Woqooyi Galbeed,SO,,,Xaafadda Massalaha,,,,,,,,
766,VWZ,39.9841096,-82.8713834,,379,N Hamilton Rd,Columbus,Franklin County,OH,US,43213,,,,1313,,,,,,
767,UST,29.95439,-81.3428916,Northeast Florida Regional Airport,4900,US-1,St. Augustine,St Johns County,FL,US,32095,,,,,,,,,,
768,ILN,39.4319998,-83.7856706,Wilmington Air Park,1113,Airport Rd,Wilmington,Clinton County,OH,US,45177,,,,8904,,,,,,
769,WRI,51.1041654,16.8809331,Wrocław Nicolaus Copernicus Airport,190,Graniczna,Wrocław,,Województwo dolnośląskie,PL,54-530,,,,,,,,,,
770,ASN,33.5716329,-86.0528203,Talladega Municipal Airport ASN,,Airport Dr,Lincoln,Talladega County,AL,US,35096,,,,,,,,,,
771,OCF,29.1695783,-82.22302069999999,Ocala International Airport,750,SW 60th Ave,Ocala,Marion County,FL,US,34474,,,,,,,,,,
772,OLS,31.4177278,-110.8485863,,,,,Santa Cruz County,AZ,US,85621,,,,,,,,,,
773,PSK,37.138422,-80.68122799999999,New River Valley Airport - PSK,5391,C V Jackson Rd,Dublin,Pulaski County,VA,US,24084,,,Cloyd,2637,,,,,,
774,DMN,13.9132602,100.6041987,Don Mueang International Airport,222,Vibhavadi Rangsit Rd,,,Krung Thep Maha Nakhon,TH,10210,,Khet Don Mueang,,,,,,,,
775,ELD,33.2191423,-92.81116960000001,South Arkansas Regional Airport,418,Airport Dr,El Dorado,Union County,AR,US,71730,,,,,,,,,,
776,GCK,37.9268913,-100.7198703,Garden City Regional Airport-Gck,2225,S Air Service Rd,Garden City,Finney County,KS,US,67846,,,Pierceville,,,,,,,
777,GLH,33.4819016,-90.99037709999999,Mid Delta Regional Airport-Glh,166,Fiffth Ave,Greenville,Washington County,MS,US,38703,,,,9737,,,,,,
778,PDT,45.689535,-118.839413,Eastern Oregon Regional Airport at Pendleton,2016,Airport Rd,Pendleton,Umatilla County,OR,US,97801,,,,,,,,,,
779,TTD,45.5479186,-122.3968382,Troutdale Airport,999,NW Frontage Rd,Troutdale,Multnomah County,OR,US,97060,,,,,,,,,,
780,IAB,38.9531162,-77.45653879999999,Dulles International Airport,1,Saarinen Cir,Dulles,,VA,US,20166,,,,,,,,,,
781,MZJ,32.5225963,-111.3332279,Pinal Airpark,24641,E Pinal Airpark Rd,Red Rock,Pinal County,AZ,US,85145,,,,,,,,,,
782,VQQ,30.22136,-81.88070499999999,Cecil Airport,13365,Simpson Way,Jacksonville,Duval County,FL,US,32221,Southwest Jacksonville,,,8105,,,,,,
783,ONA,38.4401823,-82.2012948,,1,Fair Skies Drive,Ona,Cabell County,WV,US,25545,,,5,,,,,,,
784,SGH,39.8431394,-83.8436718,Beckley Municipal Airport-Sgh,1251,W Blee Rd,Springfield,Clark County,OH,US,45502,,,Green Township,8896,,,,,,
785,ARB,42.2251956,-83.7456555,Ann Arbor Municipal Airport,801,Airport Dr,Ann Arbor,Washtenaw County,MI,US,48108,,,,9703,,,,,,
786,BML,44.5759027,-71.1768579,Berlin Regional Airport,800,East Side River Rd,Milan,Coos County,NH,US,03588,,,,3536,,,,,,
787,FDY,41.0120984,-83.66869659999999,Findlay Airport,1615,Gray St,Findlay,Hancock County,OH,US,45840,,,,1411,,,,,,
788,MGW,39.64529599999999,-79.920321,Morgantown Municipal Airport,100,Hart Field Rd,Morgantown,Monongalia County,WV,US,26505,,,Eastern,,,,,,,
789,MPV,44.2031184,-72.56359069999999,Edward F. Knapp State Airport,1979,Airport Rd,Barre,Washington County,VT,US,05641,,,,,,,,,,
790,NJ1,40.6895314,-74.1744624,Newark Liberty International Airport,3,Brewster Rd,Newark,,NJ,US,07114,,,,,,,,,,
791,NY1,42.3510178,-73.6365154,Kline Kill Airport-NY1,,Trailer Park,Chatham,Columbia County,NY,US,12037,,,Ghent,,,,,,,
792,OCA,25.3209601,-80.27781379999999,Ocean Reef Club Airport-07FA,60,Barracuda Ln,Key Largo,Monroe County,FL,US,33037,,,,,,,,,,
793,P1A,43.6347754,-79.3968635,,9,Eireann Quay,Toronto,Toronto Division,ON,CA,M5V 3N2,,Old Toronto,,,,,,,,
794,SEG,40.8159965,-76.85984420000001,Penn Valley Airport,100,Airport Rd,Selinsgrove,Snyder County,PA,US,17870,,,Monroe Township,9511,,,,,,
795,VGC,42.8420894,-75.5590612,Hamilton Municipal Airport,6610,Wings Way,Hamilton,Madison County,NY,US,13346,,,Madison,,,,,,,
796,FPR,27.4920528,-80.36793779999999,Treasure Coast International Airport and Business Park,3000,Curtis King Blvd,Fort Pierce,St Lucie County,FL,US,34946,,,,9101,,,,,,
797,LAL,27.9945173,-82.0143138,Lakeland Linder International Airport,3900,Don Emerson Dr,Lakeland,Polk County,FL,US,33811,,,,1263,,,,,,
798,MPB,25.7833583,-80.1774126,Miami Seaplane Base,1000,MacArthur Causeway,Miami,Miami-Dade County,FL,US,33132,Watson Island,,,1613,,,,,,
799,A34,39.8560963,-104.6737376,Denver International Airport,8500,Peña Blvd,Denver,Denver County,CO,US,80249,,,,,,,,,,
800,A75,39.8560963,-104.6737376,Denver International Airport,8500,Peña Blvd,Denver,Denver County,CO,US,80249,,,,,,,,,,
801,EHR,37.8105693,-87.6778373,Henderson City-County Airport,2154,KY-136,Henderson,Henderson County,KY,US,42420,,,,,,,,,,
802,SKJ,40.5204227,22.9716758,Thessaloniki Airport Makedonia,,EO Aerodromiou Thessalonikis,Thessaloniki,,,GR,551 03,,,,,,,,,,
803,BMC,41.552419,-112.0629715,Brigham City Municipal Airport,1800,N 2000 W,Brigham City,Box Elder County,UT,US,84302,,,,,,,,,,
804,CXL,32.6665557,-115.5099079,Calexico International Airport,801,W 2nd St,Calexico,Imperial County,CA,US,92231,,,,,,,,,,
805,GVL,34.2736671,-83.8315121,Lee Gilmer Memorial Airport - GVL,1137,Aviation Way,Gainesville,Hall County,GA,US,30501,,,,,,,,,,
806,IRK,40.0933471,-92.5412676,Kirksville Regional Airport,27161,David Hall Trail,Kirksville,Adair County,MO,US,63501,,,Pettis Township,,,,,,,
807,LRU,32.2912322,-106.9208121,Las Cruces International Airport,8990,Zia Blvd,Las Cruces,Doña Ana County,NM,US,88007,,,,,,,,,,
808,MMH,37.6244629,-118.8388538,Mammoth Yosemite Airport,1300,Airport Rd,Mammoth Lakes,Mono County,CA,US,93546,,,,,,,,,,
809,MYF,32.8126658,-117.1415913,Montgomery-Gibbs Executive Airport,3750,John J Montgomery Dr,San Diego,San Diego County,CA,US,92123,Kearny Mesa,,,,,,,,,
810,SAF,35.6182563,-106.0845315,Santa Fe Regional Airport,121,Aviation Dr,Santa Fe,Santa Fe County,NM,US,87507,,,,,,,,,,
811,UDD,33.745641,-116.270726,Bermuda Dunes Airport (UDD),79880,Ave 42,Bermuda Dunes,Riverside County,CA,US,92203,,,,1453,,,,,,
812,NCN,60.07872219999999,-147.9946889,,,,Chenega,Valdez-Cordova,AK,US,99574,,,,,,,,,,
813,TEK,60.871954,-146.6879299,,,,Tatitlek,Valdez-Cordova,AK,US,99677,,,,,,,,,,
814,HNB,38.2473711,-86.9520577,Huntingburg Regional Airport - KHNB,2495,W 900 S,Huntingburg,Dubois County,IN,US,47542,,,Cass Township,,,,,,,
815,DHN,31.3148738,-85.44872099999999,Dothan Regional Airport,800,Airport Dr,Dothan,Dale County,AL,US,36303,,,,,,,,,,
816,1G4,35.9876807,-113.8206185,,5001,Diamond Bar Rd,Peach Springs,Mohave County,AZ,US,86434,,,,,Grand Canyon West,,,,,
817,BLD,41.9388735,-72.68603139999999,Bradley International Airport,,Schoephoester Rd,Windsor Locks,Hartford County,CT,US,06096,,,,,,,,,,
818,DQS,-8.746717199999999,115.166787,Ngurah Rai International Airport,,Jalan Raya Gusti Ngurah Rai,,Kabupatén Badung,Bali,ID,80362,,,Kuta,,,,,,,Tuban
819,GCN,35.9526026,-112.1444184,Grand Canyon National Park Airport,871,Liberator Dr,Grand Canyon Village,Coconino County,AZ,US,86023,,,,,,,,,,
820,PGS,35.5299123,-113.2401767,Grand Canyon Caverns Airport,,W Historic Rte 66,Peach Springs,Coconino County,AZ,US,86434,,,,,,,,,,
821,06A,32.4598745,-85.6800852,,1721,General B O'Davis Junior Drive,Tuskegee,Macon County,AL,US,36083,,,,,,,,,,
822,ZXH,41.6926593,-72.657527,,1079,Silas Deane Hwy,Wethersfield,Hartford County,CT,US,06109,,,,4229,,,,,,
823,JRB,40.7015101,-74.0091494,,6,E River Bikeway,New York,New York County,NY,US,10004,,Manhattan,,3200,,,,,,
824,MHE,43.7743244,-98.03859109999999,Mitchell Municipal Airport,5971,Hanger Rd,Mitchell,Davison County,SD,US,57301,,,,6270,,,,,,
825,POU,41.6270041,-73.88454,Hudson Valley Regional Airport,263,New Hackensack Rd,Wappingers Falls,Dutchess County,NY,US,12590,,,Wappinger,1404,,,,,,
826,BFT,32.4114871,-80.6344771,Beaufort County Airport,39,Airport Cir,Beaufort,Beaufort County,SC,US,29907,,,,,,,,,,
827,JZI,32.6990607,-80.005979,,2744,Fort Trenholm Rd,Johns Island,Charleston County,SC,US,29455,,,,,,,,,,
828,STX,17.6994979,-64.79746960000001,Henry E Rohlson Airport,,,Christiansted,Southcentral,St Croix,VI,00821,,,,,,,,,,
829,CHD,30.6783321,76.7884713,,,,Chandigarh,,CH,IN,,,Chandigarh Airport Area,,,,,,,,
830,DMA,32.1599134,-110.8809135,Davis Monthan TACAN DMA 123X,,,Tucson,Pima County,AZ,US,85707,,,,,,,,,,
831,LGU,41.7833988,-111.8543095,Logan-Cache Airport,2500,N 900 W,Logan,Cache County,UT,US,84321,,,,,,,,,,
832,ARA,30.0372414,-91.88162319999999,Acadiana Regional Airport,1404,Hangar Dr,New Iberia,Iberia Parish,LA,US,70560,,,3,,,,,,,
833,FSM,35.3380696,-94.3635085,Fort Smith Regional Airport,6700,McKennon Blvd,Fort Smith,Sebastian County,AR,US,72903,,,Upper Township,,,#200,,,,
834,TDF,36.2881784,-78.98234360000001,Person County Airport-TDF,385,Montgomery Dr,Timberlake,Person County,NC,US,27583,,,Flat River,,,,,,,
835,SGU,37.0308263,-113.5089302,SGU,4550,S Airport Pkwy,St. George,Washington County,UT,US,84790,,,,,,,,,,
836,GGG,32.3876264,-94.71911860000002,East Texas Regional Airport,269,Terminal Cir,Longview,,TX,US,75603,,,,7043,,,,,,
837,NTU,36.8206445,-76.0278013,Naval Air Station Oceana,1750,Tomcat Blvd,Virginia Beach,,VA,US,23460,,,,,,,,,,
838,XSD,37.7948978,-116.7715875,,,,,Nye County,NV,US,,,,,,,,,,,
839,MWL,32.78208970000001,-98.06095119999999,Mineral Wells Airport,5300,Airport Rd,Mineral Wells,,TX,US,76067,,,,9238,,,,,,
840,A30,41.557922,-122.854219,Scott Valley Airport,8202,Island Rd,Etna,Siskiyou County,CA,US,96027,,,,,,,,,,
841,BFB,54.6557252,-6.219322699999999,Belfast International Airport,,Airport Rd,,Antrim And Newtownabbey,Northern Ireland,GB,BT29 4AB,,,,,,,,Belfast,,
842,SPS,26.8200985,75.81463699999999,,,,Jaipur,Jaipur,RJ,IN,302029,,Maruti Nagar,,,,,,,,
843,LAR,41.3201937,-105.6703447,Laramie Regional Airport,555,N General Brees Rd,Laramie,Albany County,WY,US,82070,,,,,,,,,,
844,MHV,35.056783,-118.157814,Mojave Air & Space Port,1434,Flight Line,Mojave,Kern County,CA,US,93501,,,,,,,,,,
845,BPT,29.955847,-94.0220743,Jack Brooks Regional Airport,,US-69,Nederland,Jefferson County,TX,US,77705,,,,,,,,,,
846,MKL,35.6024496,-88.92146269999999,McKellar-Sipes Regional Airport,308,Grady Montgomery Dr,Jackson,Madison County,TN,US,38301,,,,,,,,,,
847,BFD,41.7993285,-78.63963489999999,Bradford Regional Airport,212,Airport Rd,Lewis Run,McKean County,PA,US,16738,,,Lafayette Township,,,,,,,
848,DIK,46.80166639999999,-102.7928843,Dickinson Theodore Roosevelt Regional Airport,11120,42nd St SW,Dickinson,Stark County,ND,US,58601,,,Dickinson South,9282,,,,,,
849,PQI,46.6922264,-68.04525,Presque Isle International Airport,650,Airport Dr,Presque Isle,Aroostook County,ME,US,04769,,,,2088,,,,,,
850,CLD,33.1268216,-117.2792408,Mc Clellan Palomar Airport-Crq,2198,Palomar Airport Rd,Carlsbad,San Diego County,CA,US,92008,,,,,,,,,,
851,RIL,39.5260659,-107.7257521,Rifle Garfield County Airport,375,Co Rd 352,Rifle,Garfield County,CO,US,81650,,,,,,,,,,
852,SAC,38.6950854,-121.5900648,Sacramento International Airport,6900,Airport Blvd,Sacramento,Sacramento County,CA,US,95837,North Natomas,,,,,,,,,
853,TCC,35.182777,-103.603058,Tucumcari Muni Airport-Tcc,6352,Quay Rd Ai,Tucumcari,Quay County,NM,US,88401,,,,9444,,,,,,
854,BFM,30.6370652,-88.0788295,Mobile Downtown Airport,2455,Michigan Ave,Mobile,Mobile County,AL,US,36615,Brookley Aeroplex,,,,,,,,,
855,OSC,44.452499,-83.38028,Oscoda-Wurtsmith Airport,,,Oscoda,Iosco County,MI,US,48750,,,,,,,,,,
856,BLV,38.5491996,-89.8216405,MidAmerica St. Louis Airport (BLV),9656,Air Terminal Dr,Mascoutah,St Clair County,IL,US,62258,,,,,,,,,,
857,GRI,40.9694381,-98.3129098,Central Nebraska Regional Airport,3773,Sky Park Rd,Grand Island,Hall County,NE,US,68801,,,,9108,,,,,,
858,EKO,40.8278188,-115.786212,Elko Regional Airport,975,Terminal Way,Elko,Elko County,NV,US,89801,,,,7854,,,,,,
859,OKK,40.5277802,-86.0580044,Kokomo VORTAC OKK 113.5,,,Kokomo,Howard County,IN,US,46901,,,Howard Township,,,,,,,
860,HBG,40.1942375,-76.7576672,Harrisburg International Airport,1,Terminal Dr,Middletown,Dauphin County,PA,US,17057,,,Lower Swatara Township,,,,,,,
861,LBF,41.1326828,-100.6979522,North Platte Regional Airport,5400,E Lee Bird Dr,North Platte,Lincoln County,NE,US,69101,,,Hall,,,10,,,,
862,ESF,31.3937585,-92.2956919,Alexandria Esler Regional Airport,7615,Esler Field Rd,Pineville,Rapides Parish,LA,US,71360,,,,9016,,,,,,
863,ESN,38.8114304,-76.06473989999999,Easton Airport,29137,Newnam Rd,Easton,Talbot County,MD,US,21601,,,"1, Easton",7075,,,,,,
864,HOT,34.4827444,-93.09560429999999,Memorial Field Airport,525,Airport Rd,Hot Springs,Garland County,AR,US,71913,,,Hot Springs Township,,,,,,,
865,MBL,44.2754452,-86.2562133,Manistee County Blacker Airport,2323,Airport Rd,Manistee,Manistee County,MI,US,49660,,,Manistee Township,,,,,,,
866,MTH,24.7248485,-81.0513075,Florida Keys/Marathon International Airport,9000,Overseas Hwy,Marathon,Monroe County,FL,US,33050,,,,3242,,,,,,
867,PGD,26.9182483,-81.99664070000001,Punta Gorda Airport,28000,Airport Rd,Punta Gorda,Charlotte County,FL,US,33982,,,,,,,,,,
868,SOP,35.2350831,-79.39411559999999,Moore County Airport,7825,Aviation Dr,Carthage,Moore County,NC,US,28327,,,"7, McNeill",6119,,,,,,
869,T4X,40.6438,-73.782,,,,,Queens County,NY,US,11430,Jamaica,Queens,,,,,,,,
870,FLG,35.1401934,-111.6708808,Flagstaff Pulliam Airport,6200,S Pulliam Dr,Flagstaff,Coconino County,AZ,US,86005,,,,,,,,,,
871,GCC,44.348086,-105.5390962,Gillette-Campbell County Airport,2000,Airport Rd,Gillette,Campbell County,WY,US,82716,,,,,,,,,,
872,IGM,35.2589259,-113.9434576,Kingman Airport,7000,Flightline Dr,Kingman,Mohave County,AZ,US,86401,,,,,,,,,,
873,PHN,33.4372686,-112.0077881,Phoenix Sky Harbor International Airport,3400,E Sky Harbor Blvd,Phoenix,Maricopa County,AZ,US,85034,Central City,,,,,,,,,
874,QQY,33.9415889,-118.40853,Los Angeles International Airport,1,World Way,Los Angeles,Los Angeles County,CA,US,90045,,,,,,,,,,
875,ANP,38.9425338,-76.56922449999999,Lee Airport-ANP,3090,Solomons Island Rd,Edgewater,Anne Arundel County,MD,US,21037,,,1,1402,,,,,,
876,AOO,40.2949704,-78.3238791,Altoona–Blair County Airport,310,Airport Rd,Martinsburg,Blair County,PA,US,16662,,,North Woodbury Township,,,,,,,
877,LWM,42.7144728,-71.1203384,Lawrence Municipal Airport,492,Sutton St,North Andover,Essex County,MA,US,01845,,,,,,,,,,
878,MQJ,39.8434579,-85.901844,Indianapolis Regional Airport,3867,N Aviation Way,Greenfield,Hancock County,IN,US,46140,,,Buck Creek Township,,,,,,,
879,OIC,42.5659695,-75.5268645,Lt. Warren E. Eaton Airport,6390,NY-12,Norwich,Chenango County,NY,US,13815,,,North Norwich,,,,,,,
880,WWD,39.0054016,-74.9082107,Cape May Airport,507,Terminal Dr,,Cape May County,NJ,US,08242,Rio Grande,,Lower Township,2220,,,,,,
881,HSH,35.975317,-115.1385084,Henderson Executive Airport,3500,Executive Terminal Dr,Henderson,Clark County,NV,US,89052,,,,,,,,,,
882,LQK,34.8101215,-82.7019129,Pickens County Airport,240,Airport Rd,Liberty,Pickens County,SC,US,29657,,,,,,,,,,
883,TRM,33.6350918,-116.1616669,Jacqueline Cochran Regional Airport,56-850,Higgins Dr,Thermal,Riverside County,CA,US,92274,,,,,,,,,,
884,VBG,39.0532746,-84.6630165,Cincinnati/Northern Kentucky International Airport,3087,Terminal Dr,Hebron,Boone County,KY,US,41048,,,,,,,,,,
885,SDM,32.5705504,-116.9810485,Brown Field Municipal Airport,1424,Continental St,San Diego,San Diego County,CA,US,92154,,Otay Mesa,,5717,,,,,,
886,RRT,48.9324113,-95.3412453,Warroad Memorial International Airport,36955,Co Rd 13,Warroad,Roseau County,MN,US,56763,,,,9011,,,,,,
887,SER,38.9247623,-85.9072801,"Freeman Municipal Airport, SER",1025,A Ave,Seymour,Jackson County,IN,US,47274,,,Jackson Township,3394,,,,,,
888,L41,36.8116024,-111.642116,Aeroportul Marble Canyon,540,US-89A,Marble Canyon,Coconino County,AZ,US,86036,,,,9997,,,,,,
889,LPS,27.9331848,-15.3877066,Gran Canaria Airport,,,,Las Palmas,CN,ES,35230,,,,,,,,,,
890,PWT,47.4924824,-122.7665241,Bremerton National Airport,,WA-3,Bremerton,Kitsap County,WA,US,98312,,,,,,,,,,
891,RSJ,48.6461288,-122.8709437,,1400,Rosario Rd,Eastsound,San Juan County,WA,US,98245,,,,8570,,,,,,
892,WA6,53.2622785,-2.731434,,,,,Cheshire West and Chester,England,GB,WA6,,,,,,,,Frodsham,,
893,NEW,29.9910905,-90.2592299,Louis Armstrong New Orleans International Airport,1,Terminal Dr,Kenner,,LA,US,70062,,,,,,,,,,
894,MSS,44.9360661,-74.8442316,Massena International Airport,90,Aviation Rd,Massena,St Lawrence County,NY,US,13662,,,Massena,,,,,,,
895,A26,41.185129,-120.950063,Adin Airport-A26,,,Adin,Modoc County,CA,US,96006,,,,,,,,,,
896,A6K,37.369349,-121.9285461,,1701,Airport Blvd,San Jose,Santa Clara County,CA,US,95110,North San Jose,,,,,,,,,
897,SVW,37.4201674,-5.89305,Seville Airport,Km. 532,A-4,Sevilla,Sevilla,AL,ES,41020,,,,,,,,,,
898,DJN,64.0513315,-145.7296349,Delta Junction Airport-D66,1885,Hess Ave,Delta Junction,Southeast Fairbanks,AK,US,99731,,,,,,,,,,
899,GUC,38.5371548,-106.935603,Gunnison–Crested Butte Regional Airport,,,Gunnison,Gunnison County,CO,US,81230,,,,,,,,,,
900,PAM,39.500832,-86.691948,,5162,N Flyers Row,Cloverdale,Putnam County,IN,US,46120,,,Cloverdale Township,9363,,,,,,
901,SZL,38.7296275,-93.55820740000001,KSZL,1312,Vosler Ave,Whiteman AFB,Johnson County,MO,US,65305,,,Washington Township,,,,,,,
902,JVL,42.6179146,-89.0415829,Southern Wisconsin Regional Airport,4004,S Oakhill Ave,Janesville,Rock County,WI,US,53546,,,Rock,,,,,,,
903,LYH,37.3271839,-79.2002065,Lynchburg Regional Airport,350,Terminal Dr,Lynchburg,Campbell County,VA,US,24502,,,Concord,5271,,#100,,,,
904,MA1,6.5818185,3.3211348,Murtala Muhammed International Airport,,,Lagos,,LA,NG,,,,,,,,,,,
905,MJX,39.9257646,-74.2939871,Ocean County Airport,,,Berkeley Township,Ocean County,NJ,US,08721,Bayville,,,,,,,,,
906,MPO,41.1366186,-75.3796004,Pocono Mountains Municipal Airport,188,Airport Dr,Tobyhanna,Monroe County,PA,US,18466,,,Coolbaugh Township,,,,,,,
907,N3Y,42.8383305,-80.30181069999999,,,,Simcoe,Norfolk County,ON,CA,N3Y,,,Norfolk County,,,,,,,
908,NHZ,42.929687,-71.4352177,Manchester-Boston Regional Airport,1,Airport Rd,Manchester,,NH,US,03103,,,,,,,,,,
909,NJ4,40.6895314,-74.1744624,Newark Liberty International Airport,3,Brewster Rd,Newark,,NJ,US,07114,,,,,,,,,,
910,OCE,38.3110953,-75.1238896,Ocean City Muni Airport-Oxb,12724,Airport Rd,Berlin,Worcester County,MD,US,21811,,,"10, Ocean City",2420,,,,,,
911,SAA,41.444859,-106.823524,,,,Saratoga,Carbon County,WY,US,82331,,,,,,,,,,
912,HIO,45.5329479,-122.9479571,Hillsboro Airport,3355,NE Cornell Rd,Hillsboro,Washington County,OR,US,97124,,,,5018,,,,,,
913,ALN,38.8882954,-90.05587229999999,St. Louis Regional Airport,8,Terminal Dr,East Alton,Madison County,IL,US,62024,,,,,,,,,,
914,BKG,36.5385446,-93.19907289999999,Branson Airport,4000,Branson Airport Blvd,Hollister,Taney County,MO,US,65672,,,Scott Township,,,,,,,
915,CVO,44.4971573,-123.2867872,Corvallis Municipal Airport,5695,SW Airport Ave,Corvallis,Benton County,OR,US,97333,,,,,,,,,,
916,JBR,35.8346151,-90.6426358,Jonesboro Municipal Airport,3901,Lindbergh Dr,Jonesboro,Craighead County,AR,US,72401,,,,,,,,,,
917,LA4,33.9415889,-118.40853,Los Angeles International Airport,1,World Way,Los Angeles,Los Angeles County,CA,US,90045,,,,,,,,,,
918,MRN,35.8229198,-81.61309709999999,Foothills Regional Airport-KMRN,3566,Morganton Lenoir Airport Ave,Morganton,Caldwell County,NC,US,28655,,,Lenoir,7717,,,,,,
919,NQA,35.3494374,-89.8698184,Millington-Memphis Airport,8182,Hornet Ave,Millington,Shelby County,TN,US,38053,,,,,,,,,,
920,POF,36.7662376,-90.3230731,Poplar Bluff Municipal Airport,2903,State Hwy B,Poplar Bluff,Butler County,MO,US,63901,,,Poplar Bluff Township,,,,,,,
921,QCX,41.4496341,-90.50827059999999,Quad City International Airport,2200,69th Ave,Moline,Rock Island County,IL,US,61265,,,,,,,,,,
922,SCH,42.8540871,-73.9288473,Schenectady County Airport-Sch,21,Airport Rd,Scotia,Schenectady County,NY,US,12302,,,Glenville,,,,,,,
923,THA,35.3801451,-86.2478943,Tullahoma Regional Airport,807,William Northern Blvd,Tullahoma,,TN,US,37388,,,,4734,,,,,,
924,TSM,36.4590333,-105.6727798,,24662,US-64,El Prado,Taos County,NM,US,87529,,,,,,,,,,
925,VUJ,35.4143009,-80.15120739999999,Stanly County Airport,43222,Lowder Aviation Pkwy,New London,Stanly County,NC,US,28127,,,Harris,,,,,,,
926,GSH,41.52470719999999,-85.7948419,Goshen Municipal Airport-GSH,17229,Co Rd 42,Goshen,Elkhart County,IN,US,46526,,,Elkhart Township,9485,,,,,,
927,KNB,37.01018570000001,-112.5316552,Kanab Airport,2378,S Highway 89A,Kanab,Kane County,UT,US,84741,,,,,,,,,,
928,ENW,42.5900845,-87.92588529999999,Kenosha Airport (ENW),9900,52nd St,Kenosha,Kenosha County,WI,US,53144,,,,,,,,,,
929,HYR,46.0261857,-91.44399399999999,Sawyer County Airport,10930,N Airport Rd,Hayward,Sawyer County,WI,US,54843,,,Hayward,4035,,,,,,
930,JDX,45.58976939999999,-122.5950942,Portland International Airport,7000,NE Airport Way,Portland,Multnomah County,OR,US,97218,Northeast Portland,,,,,,,,,
931,AZ3,33.4224961,-111.9807082,,4702,E University Dr,Phoenix,Maricopa County,AZ,US,85034,South Mountain Village,,,,,,,,,
932,BYH,35.9579513,-89.949274,Arkansas International Airport-Byh,4701,Memorial Dr,Blytheville,Mississippi County,AR,US,72315,,,Chickasawba Township,,,201,,,,
933,ISM,28.2953051,-81.436792,Kissimmee Gateway Airport,401,Dyer Blvd,Kissimmee,Osceola County,FL,US,34741,,,,,,,,,,
934,SEE,47.4502499,-122.3088165,Seattle-Tacoma International Airport,17801,International Blvd,Seattle,King County,WA,US,98158,,,,,,,,,,
935,TYR,32.3511258,-95.40962929999999,Tyler Pounds Regional Airport,700,Skyway Blvd,Tyler,Smith County,TX,US,75704,,,,,,,,,,
936,UES,43.0388566,-88.23760089999999,Waukesha County Airport,2525,Aviation Rd,Waukesha,Waukesha County,WI,US,53188,,,,1691,,,,,,
937,VIS,36.3266944,-119.3986278,Visalia Municipal Airport,9501,W Airport Dr,Visalia,Tulare County,CA,US,93277,,,,,,,,,,
938,CKE,41.4057985,-81.8538669,Cleveland Hopkins International Airport,5300,Riverside Dr,Cleveland,Cuyahoga County,OH,US,44135,,,,,,,,,,
939,HWD,37.6628524,-122.1216304,Hayward Executive Airport,20301,Skywest Dr,Hayward,Alameda County,CA,US,94541,,,,,,,,,,
940,OTH,43.4162233,-124.2492439,Southwest Oregon Regional Airport,1100,Airport Ln,North Bend,Coos County,OR,US,97459,,,,,,,,,,
941,WVI,36.9342609,-121.7878176,Watsonville Muni Airport-WVI,100,Aviation Way,Watsonville,Santa Cruz County,CA,US,95076,,,,2048,,,,,,
942,AOH,40.7048195,-84.0267798,Allen County Airport,700,Airport Dr,Lima,Allen County,OH,US,45804,,,Perry Township,4201,,,,,,
943,ALW,46.0873172,-118.2844589,Walla Walla Regional Airport,45,Terminal Loop,Walla Walla,Walla Walla County,WA,US,99362,,,,,,,,,,
944,UOX,34.3837593,-89.5367179,University-Oxford Airport,1,Airport Rd,Oxford,Lafayette County,MS,US,38655,,,,2502,,,,,,
945,DRO,37.1506067,-107.7532559,Durango-La Plata County Airport,1000,Airport Rd,Durango,La Plata County,CO,US,81303,,,,,,,,,,
946,EWN,40.6895314,-74.1744624,Newark Liberty International Airport,3,Brewster Rd,Newark,,NJ,US,07114,,,,,,,,,,
947,BKW,37.7916696,-81.12345069999999,Raleigh County Memorial Airport,176,Airport Rd,Beaver,Raleigh County,WV,US,25813,,,District 3,,,105,,,,
948,CEY,36.663568,-88.3708472,Murray-Calloway Co. Airport,544,Airfield Ln,Murray,Calloway County,KY,US,42071,,,,,,,,,,
949,VPZ,41.4495563,-87.0093575,Porter County Regional Airport,4207,Murvihill Rd,Valparaiso,Porter County,IN,US,46383,,,Washington Township,,,,,,,
950,GWO,33.4932835,-90.0866849,Greenwood–Leflore Airport,502,Airport Rd,Greenwood,Carroll County,MS,US,38930,,,,7706,,,,,,
951,AL7,40.6413111,-73.77813909999999,JFK International Airport,,,,Queens County,NY,US,11430,,Queens,,,,,,,,
952,MLU,32.51023110000001,-92.0436229,Monroe Regional Airport,5400,Operations Rd,Monroe,Ouachita Parish,LA,US,71212,,,Parish Governing Authority District D,,,,,,,
953,AQY,60.9694961,-149.118349,Girdwood Airport-Aqy,228,Mt Hood Dr,Anchorage,Anchorage,AK,US,99587,Girdwood,,,,,,,,,
954,SXQ,60.478892,-151.0327949,Soldotna Airport-SXQ,609,Funny River Rd,Soldotna,Kenai Peninsula Borough,AK,US,99669,,,,,,,,,,
955,SPG,27.7644167,-82.6328947,City of St Petersburg: Albert Whitted Airport,107,8th Ave SE,St. Petersburg,Pinellas County,FL,US,33701,,,,5094,,,,,,
956,SMX,34.8991556,-120.4478722,Santa Maria Public Airport District,3249,Terminal Dr,Santa Maria,Santa Barbara County,CA,US,93455,,,,,,,,,,
957,BFL,35.4335053,-119.05622,Meadows Field Airport,3701,Wings Way,Bakersfield,Kern County,CA,US,93308,,,,,,,,,,
958,TKF,39.3192289,-120.1451171,Truckee Tahoe Airport,10356,Truckee Airport Rd,Truckee,,CA,US,96161,,,,,,,,,,
959,JST,40.3201493,-78.83277489999999,John Murtha Johnstown-Cambria County Airport,479,Airport Rd,Johnstown,Cambria County,PA,US,15904,,,,,,,,,,
960,TRL,32.7109541,-96.2700605,Terrell Municipal Airport,400,British Flying School Blvd,Terrell,Kaufman County,TX,US,75160,,,,,,,,,,
961,NHK,38.2750753,-76.4463107,,47123,Buse Rd,Patuxent River,St Mary's County,MD,US,20670,,,"8, Bay",,,540,,,,
962,ERV,29.9776134,-99.0890192,Kerrville Municipal Airport,1877,Airport Loop,Kerrville,Kerr County,TX,US,78028,,,,9696,,,,,,
963,MN7,44.8847554,-93.2222846,Minneapolis−Saint Paul International Airport,,,,Hennepin County,MN,US,,,,,,,,,,,
964,P2A,45.2527834,-79.8273146,Parry Sound Area Municipal Airport,97,Airport Rd,Parry Sound,Parry Sound District,ON,CA,P2A 2W8,,,Seguin,,,,,,,
965,DEC,39.83472099999999,-88.86638599999999,Decatur Airport-Dec,910,S Airport Rd,Decatur,Macon County,IL,US,62521,,,Long Creek Township,,,,,,,
966,FFT,38.1818951,-84.90433689999999,Capital City Airport-FFT,90,Airport Rd,Frankfort,Franklin County,KY,US,40601,,,,6161,,,,,,
967,MRK,26.0010166,-81.6751937,Marco Island Executive Airport,2005,Mainsail Dr,Naples,Collier County,FL,US,34114,,,,,,,,,,
968,SDY,47.7108383,-104.1845855,Sidney-Richland Airport,540,Airport Rd,Sidney,Richland County,MT,US,59270,,,,3638,,,,,,
969,SSC,33.9778584,-80.4662586,Shaw TACAN SSC 038X,,,Shaw AFB,Sumter County,SC,US,29152,,,,,,,,,,
970,MCC,38.6594179,-121.3955482,Sacramento McClellan Airport,3028,Peacekeeper Way,McClellan Park,Sacramento County,CA,US,95652,,,,,,,,,,
971,MVM,44.7027884,-67.4784104,Machias Valley Airport,52,Airport Rd,Machias,Washington County,ME,US,04654,,,,,,,,,,
972,CGE,38.542733,-76.03590179999999,Cambridge-Dorchester Regional Airport,5263,Bucktown Rd,Cambridge,Dorchester County,MD,US,21613,,,"14, Linkwood",,,,,,,
973,PCT,40.39831390000001,-74.65614529999999,Princeton Airport,41,Airpark Rd,Princeton,Somerset County,NJ,US,08540,,,,1500,,,,,,
974,FVO,41.7998868,12.2462384,Leonardo da Vinci International Airport,,Via dell' Aeroporto di Fiumicino,Fiumicino,RM,Lazio,IT,00054,,,Fiumicino,,,,,,,
975,PUL,44.8995099,13.9233752,Pula Airport,210,Valtursko polje,Pula,Općina Ližnjan,Istarska županija,HR,52100,,,,,,,,,,
976,RNT,47.4919176,-122.2175062,Renton Municipal Airport,616,Perimeter Rd W,Renton,King County,WA,US,98057,,,,,,,,,,
977,VWG,49.9098283,-97.2365461,Winnipeg James Armstrong Richardson International Airport,2000,Wellington Ave,Winnipeg,,MB,CA,R3H 1C2,,,,,,,,,,
978,AMW,41.9987151,-93.62231229999999,Ames Municipal Airport,2520,Airport Dr,Ames,Story County,IA,US,50010,,,Washington,,,,,,,
979,FLO,34.1931906,-79.7281922,Florence Regional Airport,2100,Terminal Dr,Florence,Florence County,SC,US,29501,,,,,,,,,,
980,KY5,39.0532746,-84.6630165,Cincinnati/Northern Kentucky International Airport,3087,Terminal Dr,Hebron,Boone County,KY,US,41048,,,,,,,,,,
981,RKH,34.987124,-81.05820419999999,Rock Hill - York County Airport,550,Airport Rd,Rock Hill,York County,SC,US,29732,,,,,,,,,,
982,MQT,32.7261844,-97.9974458,Millsap VORTAC MQP 117.7,,,Millsap,Parker County,TX,US,76066,,,,,,,,,,
983,COD,44.520442,-109.0225794,Yellowstone Regional Airport,2101,Roger Sedam Drive,Cody,Park County,WY,US,82414,,,,,,,,,,
984,KDK,57.8050346,-152.3737792,Kodiak Municipal Airport-Kdk,2410,Mill Bay Rd,Kodiak,Kodiak Island,AK,US,99615,,,,6635,,,,,,
985,HQM,46.9738502,-123.9273757,Bowerman Airport,,Airport Way,Hoquiam,Grays Harbor County,WA,US,98550,,,,,,,,,,
986,WSX,48.6301745,-122.951927,,525,Deer Harbor Rd,Eastsound,San Juan County,WA,US,98245,,,Eastsound,9201,,,,,,
987,LNA,26.5929714,-80.0856189,Palm Beach County Park/Lantana Airport,2633,Lantana Rd,Lake Worth,Palm Beach County,FL,US,33462,,,,,,,,,,
988,CDW,40.874877,-74.2805248,Essex County Airport,27,Wright Way,Fairfield,Essex County,NJ,US,07004,,,,3582,,,Building M,,,
989,HHH,32.2248476,-80.6971648,Hilton Head Island Airport,120,Beach City Rd,Hilton Head Island,Beaufort County,SC,US,29926,,,,,,,,,,
990,LLY,39.9408789,-74.84340259999999,South Jersey Regional,68,Stacy Haines Rd,Lumberton,Burlington County,NJ,US,08048,,,,,,,,,,
991,PLN,45.5714903,-84.78618340000001,Pellston Regional Airport,1395,US-31,Pellston,Emmet County,MI,US,49769,,,McKinley Township,,,,,,,
992,TVL,38.8925934,-119.9984512,Lake Tahoe Airport,1901,Lisa Maloff Way,South Lake Tahoe,El Dorado County,CA,US,96150,,,,,,Suite 100,,,,
993,HIE,30.2167337,-97.6924794,,7601,E Ben White Blvd,Austin,Travis County,TX,US,78741,Southeast Austin,,,,,,,,,
994,ONH,42.5216801,-75.0667101,Oneonta Municipal Airport,391,Airport Rd,Oneonta,Otsego County,NY,US,13820,,,Laurens,,,,,,,
995,A52,39.8560963,-104.6737376,Denver International Airport,8500,Peña Blvd,Denver,Denver County,CO,US,80249,,,,,,,,,,
996,SWD,60.130163,-149.4178818,Seward Airport-SWD,2311,Airport Rd,Seward,Kenai Peninsula Borough,AK,US,99664,,,,,,,,,,
997,A65,53.86794339999999,-1.6615306,Leeds Bradford Airport,,Whitehouse Ln,Yeadon,West Yorkshire,England,GB,LS19 7TU,,,,,,,,Leeds,,
998,BIG,33.9415889,-118.40853,Los Angeles International Airport,1,World Way,Los Angeles,Los Angeles County,CA,US,90045,,,,,,,,,,
999,JLA,53.3358627,-2.8550475,Liverpool John Lennon Airport,,Speke Hall Ave,Speke,Merseyside,England,GB,L24 1YD,,,,,,,,Liverpool,,
1000,NJK,32.8113356,-115.6722218,,2024,Bennett Rd,El Centro,Imperial County,CA,US,92243,,,,,,,,,,
1001,CLM,48.1188352,-123.498044,William R Fairchild International Airport,1402,Fairchild Airport Rd,Port Angeles,Clallam County,WA,US,98363,,,,,,,,,,
1002,AZ7,33.4372686,-112.0077881,Phoenix Sky Harbor International Airport,3400,E Sky Harbor Blvd,Phoenix,Maricopa County,AZ,US,85034,Central City,,,,,,,,,
1003,BCE,37.7012889,-112.1552824,Bryce Canyon Airport-Bce,450,N Airport Rd,Bryce Canyon City,Garfield County,UT,US,84764,,,,,,,,,,
1004,CNY,38.7613296,-109.7449264,Canyonlands Field Airport,110,W Aviation Way,Moab,Grand County,UT,US,84532,,,,,,,,,,
1005,NZY,32.6978305,-117.2043706,North Island Naval Air Station,,,San Diego,San Diego County,CA,US,92135,,,,,,,,,,
1006,GBD,38.3469363,-98.8537554,Great Bend Mun Airport-GBD,9047,6th St,Great Bend,Barton County,KS,US,67530,,,,9770,,,,,,
1007,RBW,32.9216487,-80.6396425,Lowcountry Regional Airport,537,Aviation Way,Walterboro,Colleton County,SC,US,29488,,,,,,,,,,
1008,T1X,36.0857786,-115.1514362,LAS Terminal 1 Departures,23,Wayne Newton Blvd,Las Vegas,Clark County,NV,US,89119,,,,,,,,,,
1009,VA9,37.5065795,-77.3208112,Richmond International Airport,1,Richard E Byrd Terminal Dr,Richmond,Henrico County,VA,US,23250,,,Varina,,,,,,,
1010,CDC,37.6960908,-113.0972155,Cedar City Regional Airport,2560,Aviation Way St,Cedar City,Iron County,UT,US,84721,,,,,,,,,,
1011,CMX,47.16870429999999,-88.4941169,Houghton County Memorial Airport,23810,Airpark Blvd,Calumet Twp,Houghton County,MI,US,49913,,,Franklin Township,,,Suite 113,,,,
1012,DQP,29.1832134,-81.0532273,Daytona Beach International Airport,700,Catalina Dr,Daytona Beach,Volusia County,FL,US,32114,Daytona Beach International Airport,,,,,,,,,
1013,JZY,32.6990607,-80.005979,,2744,Fort Trenholm Rd,Johns Island,Charleston County,SC,US,29455,,,,,,,,,,
1014,EKX,37.6893092,-85.9255762,Addington Field - Elizabethtown Regional Airport,1828,Kitty Hawk Dr,Elizabethtown,Hardin County,KY,US,42701,,,,8752,,,,,,
1015,FMY,26.5852027,-81.86358349999999,Page Field,5200,Captain Channing Page Dr,Fort Myers,Lee County,FL,US,33907,,,,,,,,,,
1016,CGI,37.226842,-89.5645181,Cape Girardeau Regional Airport,860,Limbaugh Dr,Cape Girardeau,Scott County,MO,US,63701,,,Kelso Township,9118,,,,,,
1017,MDH,37.7774799,-89.253622,Southern Illinois Airport,556,N Airport Rd,Murphysboro,Jackson County,IL,US,62966,,,,6003,,,,,,
1018,A50,38.8734021,-104.4079692,Springs East Airport,3040,Flying View,Calhan,El Paso County,CO,US,80808,,,,,,,,,,
1019,MXY,61.4377018,-142.9026883,McCarthy Airport 15Z,,,Chitina,Valdez-Cordova,AK,US,99566,,,,,,,,,,
1020,AST,46.1557664,-123.8818775,Astoria Regional Airport-Ast,1110,SE Flightline Dr,Warrenton,Clatsop County,OR,US,97146,,,,9692,,,,,,
1021,JMS,46.9294312,-98.6790504,Jamestown Regional Airport,1600,21st Ave NE,Jamestown,Stutsman County,ND,US,58401,,,,9726,,,,,,
1022,A37,32.8998091,-97.0403352,DFW International Airport,2400,Aviation Dr,DFW Airport,,TX,US,75261,,,,,,,,,,
1023,SFM,43.401197,-70.710551,Sanford Seacoast Regional Airport,199,Airport Rd,Sanford,York County,ME,US,04073,South Sanford,,Sanford,2429,,,,,,
1024,TXK,33.4568776,-93.9941485,Texarkana Regional Airport,201,Airport Dr,Texarkana,Miller County,AR,US,71854,,,Garland Township,,,,,,,
1025,LMT,42.16520269999999,-121.7463436,Crater Lake - Klamath Regional Airport,3000,Airport Way,Klamath Falls,Klamath County,OR,US,97603,,,,,,,,,,
1026,SNS,36.6646539,-121.6132879,Salinas Municipal Airport-SNS,30,Mortensen Ave,Salinas,Monterey County,CA,US,93905,,,,3325,,,,,,
1027,CBA,44.784201,-89.67268,Central Wisconsin Airport,100,CWA Dr,Mosinee,Marathon County,WI,US,54455,,,,,,,,,,
1028,MVN,38.32195249999999,-88.8545771,Mt. Vernon Outland Airport,100,Aviation Dr,Mt Vernon,Jefferson County,IL,US,62864,,,Mt Vernon Township,,,,,,,
1029,BFK,40.6413111,-73.77813909999999,JFK International Airport,,,,Queens County,NY,US,11430,,Queens,,,,,,,,
1030,ESC,45.7181005,-87.09455419999999,Delta County Airport,3300,Airport Rd,Escanaba,Delta County,MI,US,49829,,,,,,,,,,
1031,FOD,42.552434,-94.189036,Fort Dodge Regional Airport,1639,Nelson Ave,Fort Dodge,Webster County,IA,US,50501,,,Cooper,8814,,2,,,,
1032,SVN,32.0110535,-81.1470286,Hunter Army Airfield,525,Leonard Neal Street,Savannah,Chatham County,GA,US,31409,,,,,,6010,,,,
1033,FME,39.08794899999999,-76.75934099999999,Tipton Airport,7515,General Aviation Dr,Fort Meade,Anne Arundel County,MD,US,20755,,,Hanover,,,1,,,,
1034,SFZ,41.920192,-71.48925899999999,North Central State Airport,300,Jenckes Hill Rd,Smithfield,Providence County,RI,US,02917,,,,,,,,,,
1035,AVW,32.4031295,-111.2196578,Marana Regional Airport,11700,W Avra Valley Rd,Marana,Pima County,AZ,US,85653,,,,9625,,,,,,
1036,GUP,35.5152945,-108.7801124,Gallup Municipal Airport,2111,West Historic Highway,Gallup,McKinley County,NM,US,87301,,,,,,66,,,,
1037,ATO,39.210719,-82.223747,Gordon K Bush Ohio University Airport,747,Columbia Rd,Albany,Athens County,OH,US,45710,,,Lee Township,9220,,,,,,
1038,ISO,35.3247252,-77.6113604,,2780,Jetport Rd,Kinston,Lenoir County,NC,US,28504,,,Vance,,,,,,,
1039,MDO,41.78677589999999,-87.7521884,Chicago Midway International Airport,5700,S Cicero Ave,Chicago,Cook County,IL,US,60638,South Side,,,,,,,,,
1040,MD1,39.3027191,-75.8009872,Massey Aerodrome,33541,Maryland Line Rd,Massey,Kent County,MD,US,21650,,,"1, Massey",,,,,,,
1041,MVW,48.4694943,-122.4206582,Skagit Regional Airport,15400,Airport Dr,Burlington,Skagit County,WA,US,98233,,,,,,,,,,
1042,WDB,-22.4872637,17.4639679,Hosea Kutako International Airport,,,,,Khomas Region,NA,,,,,,,,,,,
1043,JRF,21.3099461,-158.0709457,Kalaeloa Airport,300,Midway St,Kapolei,Honolulu County,HI,US,96707,,,,,,,,,,
1044,BEH,42.1273513,-86.4257078,Southwest Michigan Regional Airport,1123,Territorial Rd,Benton Harbor,Berrien County,MI,US,49022,,,,2939,,,,,,
1045,JHW,42.15274609999999,-79.25914759999999,Chautauqua County Jamestown Airport,3163,Airport Dr,Jamestown,Chautauqua County,NY,US,14701,,,Ellicott,9718,,,,,,
1046,QQT,51.531427,-0.126133,,,Euston Rd,,Greater London,England,GB,N1C 4QP,Kings Cross,,,,St Pancras International,,,London,,
1047,STE,46.4834445,-84.5059301,Sault Ste. Marie Airport,,,"475 Airport Road, Sault Ste. Marie",Algoma District,ON,CA,P6A 5K6,,,,,,,,,,
1048,TOA,33.8014667,-118.3417501,Zamperini Field,3301,Airport Dr,Torrance,Los Angeles County,CA,US,90505,,,,6152,,,,,,
1049,HAF,37.5139029,-122.4951258,Half Moon Bay Airport,9850,Cabrillo Hwy,Half Moon Bay,San Mateo County,CA,US,94019,,,,5208,,,,,,
1050,SQL,37.5153754,-122.2503052,San Carlos Airport,620,Airport Way,San Carlos,San Mateo County,CA,US,94070,,,,2700,,,,,,
1051,GSB,34.8959008,-82.2172338,Greenville-Spartanburg International Airport,2000,GSP Dr,Greer,,SC,US,29651,,,,,,,,,,
1052,VZA,17.9954582,-92.8165674,Carlos Rovirosa Pérez Int'l Airport,,,Villahermosa,,Tab.,MX,86280,Dos Montes,,,,,,,,,
1053,DVT,33.6843241,-112.082851,Phoenix Deer Valley Airport,702,W Deer Valley Dr,Phoenix,Maricopa County,AZ,US,85027,Deer Valley,,,,,,,,,
1054,BVO,36.7633668,-96.0104655,Bartlesville Muni Airport,401,Wiley Post Rd,Bartlesville,Osage County,OK,US,74003,,,,,,,,,,
1055,AIK,33.6494671,-81.6779112,Aiken Regional Airport,129,Aviation Blvd,Aiken,Aiken County,SC,US,29805,,,,,,,,,,
1056,MZZ,40.4912184,-85.6754619,Marion Municipal Airport,5904,S Western Ave,Marion,Grant County,IN,US,46953,,,,,,,,,,
1057,RNH,45.1497489,-92.5402326,New Richmond Regional Airport,625,W Hanger Rd,New Richmond,St Croix County,WI,US,54017,,,,,,,,,,
1058,DHB,29.1832134,-81.0532273,Daytona Beach International Airport,700,Catalina Dr,Daytona Beach,Volusia County,FL,US,32114,Daytona Beach International Airport,,,,,,,,,
1059,CRE,33.8113547,-78.72352959999999,Grand Strand Airport,2800,Terminal St,North Myrtle Beach,Horry County,SC,US,29582,,,,,,,,,,
1060,LBL,37.0445698,-100.9523051,Liberal Airport,700,Terminal Road,Liberal,Seward County,KS,US,67901,,,,,,,,,,
1061,CRG,30.3359684,-81.51849729999999,Jacksonville Executive at Craig Airport (CRG),855-1,St Johns Bluff Rd N,Jacksonville,Duval County,FL,US,32225,East Arlington,,,,,,,,,
1062,HAO,39.3638831,-84.5254611,Butler County Regional Airport - Hogan Field,2820,E Airport Dr,Hamilton,Butler County,OH,US,45015,,,,,,,,,,
1063,LEE,38.9425338,-76.56922449999999,Lee Airport-ANP,3090,Solomons Island Rd,Edgewater,Anne Arundel County,MD,US,21037,,,1,1402,,,,,,
1064,HNM,20.7948695,-156.014732,Hana Airport,700,Alalele Pl,Hana,Maui County,HI,US,96713,,,,,,,,,,
1065,LUP,21.2111761,-156.9732302,Kalaupapa Airport-Lup,,,Kalaupapa,Kalawao County,HI,US,96742,,,,,,,,,,
1066,MUE,19.9983949,-155.6733255,Waimea-Kohala Airport,,Waimea-Kohala Airport Rd,Waimea,Hawaii County,HI,US,96743,,,,,,,,,,
1067,NJ5,40.6895314,-74.1744624,Newark Liberty International Airport,3,Brewster Rd,Newark,,NJ,US,07114,,,,,,,,,,
1068,FWH,40.9828674,-85.18844229999999,Fort Wayne Int'l Airport,3801,W Ferguson Rd,Fort Wayne,Allen County,IN,US,46809,,,Pleasant Township,,,,,,,
1069,CIU,46.2577577,-84.4744174,Chippewa County International Airport,5315,W Airport Dr,Kinross Charter Twp,Chippewa County,MI,US,49788,Kincheloe,,,,,,,,,
1070,IMT,45.81498209999999,-88.1185699,Ford Airport,400,Riverhills Rd,Kingsford,Dickinson County,MI,US,49802,,,,,,,,,,
1071,HYS,38.853909,-99.273786,Hays Regional Airport,13-3950,E 8th St,Hays,Ellis County,KS,US,67601,,,Big Creek,,,,,,,
1072,AL9,35.88007899999999,-78.7879963,Raleigh-Durham International Airport,2400,John Brantley Blvd,Morrisville,Wake County,NC,US,27560,,,Cedar Fork,,,,,,,
1073,GTU,30.6819253,-97.67362829999999,Georgetown Municipal Airport,500,Terminal Dr,Georgetown,Williamson County,TX,US,78628,,,,,,,,,,
1074,SBY,38.34136710000001,-75.5131117,Salisbury Regional Airport,5485,Airport Terminal Rd,Salisbury,Wicomico County,MD,US,21804,,,"8, Nutters",1599,,a,,,,
1075,HLI,36.8910754,-121.408234,Hollister Muni Airport-CVH,60,Airport Dr,Hollister,San Benito County,CA,US,95023,,,,,,,,,,
1076,MXF,45.6300625,8.7255307,Malpensa Airport,,,,VA,Lombardia,IT,21010,,,Ferno,,,,,,,
1077,BBD,54.6176164,-5.871830399999999,George Best Belfast City Airport,,,,Belfast,Northern Ireland,GB,BT3 9JH,,,,,,,,Belfast,,
1078,EAR,40.7251123,-99.00900349999999,Kearney Regional Airport,5145,Airport Rd,Kearney,Buffalo County,NE,US,68847,,,Center,,,,,,,
1079,EKA,35.4094523,51.1552063,IKIA,,Road,Qom,,Tehran Province,IR,,,,,,,,,,,
1080,PVW,34.1728477,-101.7132492,Hale County Airport-Pvw,10,Miller Blvd,Plainview,Hale County,TX,US,79072,,,,,,,,,,
1081,OWB,37.7463697,-87.1633877,Owensboro-Daviess County Regional Airport,2200,Airport Rd,Owensboro,Daviess County,KY,US,42301,,,,,,,,,,
1082,HSI,40.5970658,-98.4275639,,,,Hastings,Adams County,NE,US,68901,,,,,,,,,,
1083,ONP,44.5800356,-124.0583467,Newport Municipal Airport,135,SE 84th St,Newport,Lincoln County,OR,US,97366,,,,,,,,,,
1084,SQA,34.6070424,-120.0752764,Santa Ynez Airport,900,Airport Rd,Santa Ynez,Santa Barbara County,CA,US,93460,,,,,,,,,,
1085,RBD,32.6806895,-96.8671846,Dallas Executive Airport-RBD,5303,Challenger Dr,Dallas,Dallas County,TX,US,75237,Oak Cliff,,,,,,,,,
1086,SEM,32.3527585,-86.9948101,Craig Air Field,,,Selma,Dallas County,AL,US,36701,,,,,,,,,,
1087,DVL,48.1090636,-98.9038973,Devils Lake Regional Airport,106,National Guard St NW,Devils Lake,Ramsey County,ND,US,58301,,,,,,,,,,
1088,HII,34.5694092,-114.3571987,Lake Havasu City Airport,5600,Old State Hwy 95,Lake Havasu City,Mohave County,AZ,US,86404,,,,,,#1,,,,
1089,HOB,32.6923483,-103.214364,Lea County Regional Airport,6601,W Carlsbad Hwy,Hobbs,Lea County,NM,US,88240,,,,,,,,,,
1090,OGS,44.6820927,-75.47682979999999,Ogdensburg International Airport,812,New York,Ogdensburg,St Lawrence County,NY,US,13669,,,Oswegatchie,,,5900,,,,
1091,UCY,36.3826566,-88.9825951,Everett-Stewart Regional Airport,1489,Airport Circle Rd,Union City,Obion County,TN,US,38261,,,,,,,,,,
1092,PRC,34.6498173,-112.427239,Prescott Regional Airport,6500,Mac Curdy Dr,Prescott,Yavapai County,AZ,US,86301,,,,,,,,,,
1093,BWD,31.7949779,-98.95557389999999,Brownwood Regional Airport,6251,Airport Rd,Brownwood,Brown County,TX,US,76802,,,,,,,,,,
1094,GLR,45.0168627,-84.6911701,Gaylord Regional Airport,1100,Aero Dr,Gaylord,Otsego County,MI,US,49735,,,,9822,,,,,,
1095,PTV,36.03025969999999,-119.0587259,Porterville Airport-PTV,1893,S Newcomb St,Porterville,Tulare County,CA,US,93257,,,,,,,,,,
1096,SQI,41.7403255,-89.6809425,Whiteside County Airport (SQI),10950,Hoover Rd,Rock Falls,Whiteside County,IL,US,61071,,,Montmorency Township,,,,,,,
1097,SLR,33.1554134,-95.619428,Sulphur Springs Muni Arprt-Slr,,,Sulphur Springs,Hopkins County,TX,US,75482,,,,,,,,,,
1098,GGW,48.2096023,-106.6266403,Glasgow Valley County Airport,89,Airport Rd,Glasgow,Valley County,MT,US,59230,,,,,,,,,,
1099,VWD,39.9841096,-82.8713834,,379,N Hamilton Rd,Columbus,Franklin County,OH,US,43213,,,,1313,,,,,,
1100,RBG,43.2364247,-123.3580126,Roseburg Regional Airport,3896,NW Stewart Pkwy,Roseburg,Douglas County,OR,US,97470,,,,,,,,,,
1101,ATS,42.7821844,141.6890474,New Chitose Airport,,,Chitose,,Hokkaido,JP,066-0012,,Bibi,,,,,,,,
1102,LOZ,37.0873814,-84.0695071,London-Corbin Airport,566,Hal Rogers Dr,London,Laurel County,KY,US,40744,,,,,,,,,,
1103,UVA,38.1394877,-78.4516149,Charlottesville–Albemarle Airport,100,Bowen Loop,Charlottesville,Albemarle County,VA,US,22911,Foxtrot One Hangars Condos,,White Hall,,,200,,,,
1104,HIF,41.10968,-111.9826984,,7981,Georgia St,Hill AFB,,UT,US,84056,,,,5824,,,,,,
1105,LGD,45.2897179,-118.013651,La Grande Airport (LGD),60175,Pierce Rd,La Grande,Union County,OR,US,97850,,,,5256,,,,,,
1106,OLF,48.0943337,-105.5748689,L.M. Clayton Airport,7057,MT-25,Wolf Point,Roosevelt County,MT,US,59201,,,,,,,,,,
1107,IYK,35.6525663,-117.8272962,Inyokern Airport,1669,Airport Rd,Inyokern,Kern County,CA,US,93527,,,,,,,,,,
1108,TSP,35.1351058,-118.4410156,Tehachapi Muni Airport-TSP,314,N Hayes St,Tehachapi,Kern County,CA,US,93561,,,,1453,,,,,,
1109,COM,32.8998091,-97.0403352,DFW International Airport,2400,Aviation Dr,DFW Airport,,TX,US,75261,,,,,,,,,,
1110,CCR,37.9902157,-122.0561317,Buchanan Field Airport,550,Sally Ride Dr,Concord,Contra Costa County,CA,US,94520,,,,,,,,,,
1111,QQN,51.531427,-0.126133,,,Euston Rd,,Greater London,England,GB,N1C 4QP,Kings Cross,,,,St Pancras International,,,London,,
1112,MYK,61.3333899,-142.682787,,,,,Valdez-Cordova,AK,US,99566,,,,,,,,,,
1113,WYS,44.6867178,-111.1145613,Yellowstone Airport-Wys,721,Airport Rd,West Yellowstone,Gallatin County,MT,US,59758,,,,,,,,,,
1114,MEO,35.9178849,-75.69996359999999,Dare County Regional Airport (MQI),410,Airport Rd,Manteo,Dare County,NC,US,27954,,,Nags Head,,,,,,,
1115,BIH,37.3728049,-118.3639038,Eastern Sierra Regional Airport,703,Airport Rd,Bishop,Inyo County,CA,US,93514,,,,3609,,,,,,
1116,BRL,40.7815013,-91.1200059,Southeast Iowa Regional Airport,2515,Summer St,Burlington,Des Moines County,IA,US,52601,,,,,,,,,,
1117,IWD,46.5250178,-90.13089169999999,Gogebic - Iron County Airport,E5560,Airport Rd,Ironwood,Gogebic County,MI,US,49938,,,Ironwood Charter Township,,,,,,,
1118,MCW,43.1531118,-93.3361585,Mason City Municipal Airport,,,Mason City,Cerro Gordo County,IA,US,50401,,,,,,,,,,
1119,CIC,39.7990801,-121.8548167,Chico Municipal Airport,150,Airpark Blvd,Chico,Butte County,CA,US,95973,,,,,,,,,,
1120,UKI,39.1276682,-123.2013619,Ukiah Municipal Airport,1475,S State St,Ukiah,Mendocino County,CA,US,95482,,,,6401,,,,,,
1121,RIW,43.0613253,-108.4584185,Riverton Regional Airport,4800,Airport Rd,Riverton,Fremont County,WY,US,82501,,,,,,,,,,
1122,SHR,44.7738565,-106.9705132,Sheridan County Airport,908,W Brundage Ln,Sheridan,Sheridan County,WY,US,82801,,,,,,,,,,
1123,HRO,36.2639389,-93.1514816,Boone County Regional Airport,2524,Airport Rd,Harrison,Boone County,AR,US,72601,,,,7890,,,,,,
1124,HVR,48.5438304,-109.7591257,Havre City-County Airport,5404,9th St W,Havre,Hill County,MT,US,59501,,,,,,,,,,
1125,DUJ,41.1824283,-78.8923472,Dubois Regional Airport,377,Aviation Way,Reynoldsville,Jefferson County,PA,US,15851,,,Washington Township,,,,,,,
1126,SOW,34.2639019,-110.0074419,Show Low Regional Airport,3150,Airport Loop Rd,Show Low,Navajo County,AZ,US,85901,,,,,,,,,,
1127,FKL,41.377691,-79.860193,Venango Regional Airport,1560,Airport Rd,Franklin,Venango County,PA,US,16323,,,,,,,,,,
1128,MAZ,18.255084,-67.1484859,Aeropuerto Eugenio María de Hostos,,Camino Aeropuerto,Mayagüez,Sabanetas,Mayagüez,PR,00682,,,,,,,,,,
1129,TBN,37.7328155,-92.1368026,Waynesville - St. Robert Regional Airport,5017,Iowa Ave,Fort Leonard Wood,Pulaski County,MO,US,65473,,,Piney Township,,,,,,,
1130,SPB,18.3384508,-64.93970809999999,Charlotte Amalie Harbor Seaplane Base,,Veterans Dr,Charlotte Amalie,Water Island,St Thomas,VI,00802,,,,,,,,,,
1131,SSB,3.1263175,101.5530649,Sultan Abdul Aziz Shah Airport,,,Subang,,Selangor,MY,47200,,Lapangan Terbang Sultan Abdul Aziz Shah,,,,,,,,
1132,COF,28.2394645,-80.60751719999999,,,,Patrick AFB,Brevard County,FL,US,32925,,,,,,,,,,
1133,ADM,34.302181,-97.0186327,Ardmore Municipal Airport,620,General St,Ardmore,Carter County,OK,US,73401,,,,,,,,,,
1134,GBR,42.1842815,-73.40416429999999,Berkshire Aviation Enterprises,70,Egremont Plain Rd,Great Barrington,Berkshire County,MA,US,01230,,,,,,,,,,
1135,FFL,41.0558386,-91.98020129999999,Fairfield Muni Airport-FFL,2013,Airport Rd,Fairfield,Jefferson County,IA,US,52556,,,Center,9027,,,,,,
1136,VT2,32.7311885,-117.2033482,,,,San Diego,San Diego County,CA,US,92101,Point Loma,,,,,,,,Terminal 2 Rental Car Shuttle,
1137,MML,44.4448814,-95.8205108,,1650,W College Dr,Marshall,Lyon County,MN,US,56258,,,,,,,,,,
1138,PNX,33.7127772,-96.666761,North Texas Regional Airport,4700,Airport Dr,Denison,Grayson County,TX,US,75020,,,,8713,,,,,,
1139,IL2,42.20218029999999,-89.0988607,Chicago Rockford International Airport,2,Airport Cir,Rockford,Winnebago County,IL,US,61109,,,Rockford Township,,,,,,,
1140,JEF,38.5929229,-92.1652111,Jefferson City Memorial Arprt-Jef,500,Airport Rd,Jefferson City,Callaway County,MO,US,65101,,,Summit Township,,,,,,,
1141,F70,33.5754323,-117.1300082,French Valley Airport,37600,Sky Canyon Dr,Murrieta,Riverside County,CA,US,92563,,,,2692,,,,,,
1142,XSM,18.0418698,-63.1130821,Princess Juliana International Airport,,Airport Rd,Simpson Bay,,Sint Maarten,SX,,,,,,,,,,,
1143,TIX,28.5133625,-80.7988013,Space Coast Regional Airport,355,Golden Knights Blvd,Titusville,Brevard County,FL,US,32780,,,,,,,,,,
1144,ARV,45.927223,-89.730835,Lakeland Airport,1545,N Farming Rd,Woodruff,Vilas County,WI,US,54568,,,Arbor Vitae,,,,,,,
1145,ADT,34.8046896,-96.67470929999999,Ada Regional Airport,300,Ray Stout Blvd,Ada,Pontotoc County,OK,US,74820,,,,,,,,,,
1146,ASH,39.2518782,-84.38761869999999,,4335,Glendale Milford Road,Cincinnati,Hamilton County,OH,US,45242,,,,,,,,,,
1147,1B1,42.2910031,-73.71027219999999,,,,,Columbia County,NY,US,12075,,,Ghent,,,,,,,
1148,NY5,40.6413111,-73.77813909999999,JFK International Airport,,,,Queens County,NY,US,11430,,Queens,,,,,,,,
1149,MGY,39.59345980000001,-84.2280854,Dayton Wright Brothers Airport (KMGY),10550,N Springboro Pike,Miamisburg,Montgomery County,OH,US,45342,,,Miami Township,,,,,,,
1150,BDE,48.7266716,-94.60954939999999,Baudette International Airport,1103,Airport Rd NW,Baudette,Lake of the Woods County,MN,US,56623,,,,,,,,,,
1151,OBE,27.2656688,-80.85500329999999,Okeechobee County Airport-Obe,2800,NW 20th Trail,Okeechobee,Okeechobee County,FL,US,34972,,,,2061,,,,,,
1152,MVC,31.4632922,-87.3494293,Monroe County Airport-Mvc,,Airport Rd,Monroeville,Monroe County,AL,US,36460,,,,,,,,,,
1153,RYE,42.253907,-83.348931,,7000,Merriman Rd,Romulus,Wayne County,MI,US,48174,,,,,,,,,,
1154,MBY,18.502229,-77.9145169,Sangster International Airport,,,Montego Bay,,St. James Parish,JM,,,,,,,,,,,
1155,DUA,33.940079,-96.39442679999999,Durant Regional Airport,10,Waldron Rd,Durant,Bryan County,OK,US,74701,,,,1900,,,,,,
1156,PWA,35.5307445,-97.6430208,Wiley Post Airport-Pwa,5915,Phillip J Rhoads Ave,Bethany,Oklahoma County,OK,US,73008,NW OKC,,,7011,,,,,,
1157,POY,44.8661284,-108.786065,Powell Municipal Airport - KPOY,22,Rd 9,Powell,Park County,WY,US,82435,,,,,,,,,,
1158,SDX,34.8499609,-111.7890536,Sedona Airport,235,Air Terminal Dr,Sedona,Yavapai County,AZ,US,86336,,,,5837,,,,,,
1159,TX1,36.0857786,-115.1514362,LAS Terminal 1 Departures,23,Wayne Newton Blvd,Las Vegas,Clark County,NV,US,89119,,,,,,,,,,
1160,MER,37.3734598,-120.5730887,Merced County Castle Airport,1900,Airdrome Entry,Atwater,Merced County,CA,US,95301,,,,,,,,,,
1161,SRC,27.3951191,-82.55381969999999,Sarasota-Bradenton Int'l Airport,6000,Airport Cir,Sarasota,,FL,US,34243,,,,,,,,,,
1162,BOK,42.0747458,-124.2905777,KBOK,17368,Parkview Dr,Brookings,Curry County,OR,US,97415,,,,,,,,,,
1163,MLD,28.1012659,-80.645078,Orlando Melbourne International Airport,1,Air Terminal Pkwy,Melbourne,Brevard County,FL,US,32901,,,,,,,,,,
1164,BKE,44.8377716,-117.809527,Baker City Municipal Airport (BKE),43769,Heilner Dr,Baker City,Baker County,OR,US,97814,,,,,,,,,,
1165,CAR,47.4573939,-122.2922859,,16300,International Blvd,Seattle,King County,WA,US,98188,,,,2655,,,,,,
1166,AUW,44.92946269999999,-89.628243,Wausau Downtown Airport,725,Woods Pl,Wausau,Marathon County,WI,US,54403,,,,7074,,,,,,
1167,OR4,42.3730209,-122.8744669,Rogue Valley International-Medford Airport,1000,Terminal Loop Pkwy,Medford,Jackson County,OR,US,97504,,,,,,,,,,
1168,SEF,27.4555504,-81.34571509999999,Sebring Airport Authority,,,Sebring,Highlands County,FL,US,33876,,,,,,,,,,
